{
 "type": "FeatureCollection",
 "features": [
  {
   "type": "Feature",
   "id": 1,
   "geometry": {
    "type": "Point",
    "coordinates": [
     106.814619032721,
     -6.13754684436278
    ]
   },
   "properties": {
    "FID": 1,
    "JALUR": "Merah",
    "RUTE": "Jakarta Kota - Bogor",
    "STASIUN": "JAKARTA KOTA",
    "Koordinat": 700804.973713,
    "Koordina_1": 9321250.47697,
    "_layer_id": 2,
    "_layer_name": "Jakarta Kota-Bogor"
   }
  },
  {
   "type": "Feature",
   "id": 2,
   "geometry": {
    "type": "Point",
    "coordinates": [
     106.82697985103,
     -6.14978308105448
    ]
   },
   "properties": {
    "FID": 2,
    "JALUR": "Merah",
    "RUTE": "Jakarta Kota - Bogor",
    "STASIUN": "MANGGA BESAR",
    "Koordinat": 702169,
    "Koordina_1": 9319892.77,
    "_layer_id": 2,
    "_layer_name": "Jakarta Kota-Bogor"
   }
  },
  {
   "type": "Feature",
   "id": 3,
   "geometry": {
    "type": "Point",
    "coordinates": [
     106.827635621188,
     -6.16063469044118
    ]
   },
   "properties": {
    "FID": 3,
    "JALUR": "Merah",
    "RUTE": "Jakarta Kota - Bogor",
    "STASIUN": "SAWAH BESAR",
    "Koordinat": 702237.07,
    "Koordina_1": 9318692.42,
    "_layer_id": 2,
    "_layer_name": "Jakarta Kota-Bogor"
   }
  },
  {
   "type": "Feature",
   "id": 4,
   "geometry": {
    "type": "Point",
    "coordinates": [
     106.830447348027,
     -6.16661861062395
    ]
   },
   "properties": {
    "FID": 4,
    "JALUR": "Merah",
    "RUTE": "Jakarta Kota - Bogor",
    "STASIUN": "JUANDA",
    "Koordinat": 702545.74,
    "Koordina_1": 9318029.23,
    "_layer_id": 2,
    "_layer_name": "Jakarta Kota-Bogor"
   }
  },
  {
   "type": "Feature",
   "id": 5,
   "geometry": {
    "type": "Point",
    "coordinates": [
     106.830662943695,
     -6.17677325793053
    ]
   },
   "properties": {
    "FID": 5,
    "JALUR": "Merah",
    "RUTE": "Jakarta Kota - Bogor",
    "STASIUN": "GAMBIR",
    "Koordinat": 702566.05,
    "Koordina_1": 9316905.89,
    "_layer_id": 2,
    "_layer_name": "Jakarta Kota-Bogor"
   }
  },
  {
   "type": "Feature",
   "id": 6,
   "geometry": {
    "type": "Point",
    "coordinates": [
     106.832648220473,
     -6.18611500420428
    ]
   },
   "properties": {
    "FID": 6,
    "JALUR": "Merah",
    "RUTE": "Jakarta Kota - Bogor",
    "STASIUN": "GONDANGDIA",
    "Koordinat": 702782.64,
    "Koordina_1": 9315872.01,
    "_layer_id": 2,
    "_layer_name": "Jakarta Kota-Bogor"
   }
  },
  {
   "type": "Feature",
   "id": 7,
   "geometry": {
    "type": "Point",
    "coordinates": [
     106.841290013506,
     -6.19849301022198
    ]
   },
   "properties": {
    "FID": 7,
    "JALUR": "Merah",
    "RUTE": "Jakarta Kota - Bogor",
    "STASIUN": "CIKINI",
    "Koordinat": 703734.36,
    "Koordina_1": 9314500.04,
    "_layer_id": 2,
    "_layer_name": "Jakarta Kota-Bogor"
   }
  },
  {
   "type": "Feature",
   "id": 8,
   "geometry": {
    "type": "Point",
    "coordinates": [
     106.8502821495,
     -6.20999554335852
    ]
   },
   "properties": {
    "FID": 8,
    "JALUR": "Merah",
    "RUTE": "Jakarta Kota - Bogor",
    "STASIUN": "MANGGARAI",
    "Koordinat": 704725.28,
    "Koordina_1": 9313224.29,
    "_layer_id": 2,
    "_layer_name": "Jakarta Kota-Bogor"
   }
  },
  {
   "type": "Feature",
   "id": 9,
   "geometry": {
    "type": "Point",
    "coordinates": [
     106.858295121835,
     -6.22607009098912
    ]
   },
   "properties": {
    "FID": 9,
    "JALUR": "Merah",
    "RUTE": "Jakarta Kota - Bogor",
    "STASIUN": "TEBET",
    "Koordinat": 705605.25,
    "Koordina_1": 9311442.91,
    "_layer_id": 2,
    "_layer_name": "Jakarta Kota-Bogor"
   }
  },
  {
   "type": "Feature",
   "id": 10,
   "geometry": {
    "type": "Point",
    "coordinates": [
     106.858825127852,
     -6.24267994000759
    ]
   },
   "properties": {
    "FID": 10,
    "JALUR": "Merah",
    "RUTE": "Jakarta Kota - Bogor",
    "STASIUN": "CAWANG",
    "Koordinat": 705658.22,
    "Koordina_1": 9309605.99,
    "_layer_id": 2,
    "_layer_name": "Jakarta Kota-Bogor"
   }
  },
  {
   "type": "Feature",
   "id": 11,
   "geometry": {
    "type": "Point",
    "coordinates": [
     106.855034237353,
     -6.25535129328858
    ]
   },
   "properties": {
    "FID": 11,
    "JALUR": "Merah",
    "RUTE": "Jakarta Kota - Bogor",
    "STASIUN": "DUREN KALIBATA",
    "Koordinat": 705233.75,
    "Koordina_1": 9308206.56,
    "_layer_id": 2,
    "_layer_name": "Jakarta Kota-Bogor"
   }
  },
  {
   "type": "Feature",
   "id": 12,
   "geometry": {
    "type": "Point",
    "coordinates": [
     106.851836234942,
     -6.26283430202492
    ]
   },
   "properties": {
    "FID": 12,
    "JALUR": "Merah",
    "RUTE": "Jakarta Kota - Bogor",
    "STASIUN": "PASAR MINGGU BARU",
    "Koordinat": 704876.36,
    "Koordina_1": 9307379.76,
    "_layer_id": 2,
    "_layer_name": "Jakarta Kota-Bogor"
   }
  },
  {
   "type": "Feature",
   "id": 13,
   "geometry": {
    "type": "Point",
    "coordinates": [
     106.844523948529,
     -6.28442548452475
    ]
   },
   "properties": {
    "FID": 13,
    "JALUR": "Merah",
    "RUTE": "Jakarta Kota - Bogor",
    "STASIUN": "PASAR MINGGU",
    "Koordinat": 704059.17,
    "Koordina_1": 9304994.42,
    "_layer_id": 2,
    "_layer_name": "Jakarta Kota-Bogor"
   }
  },
  {
   "type": "Feature",
   "id": 14,
   "geometry": {
    "type": "Point",
    "coordinates": [
     106.838846595934,
     -6.30785510049902
    ]
   },
   "properties": {
    "FID": 14,
    "JALUR": "Merah",
    "RUTE": "Jakarta Kota - Bogor",
    "STASIUN": "TANJUNG BARAT",
    "Koordinat": 703421.01,
    "Koordina_1": 9302405.7,
    "_layer_id": 2,
    "_layer_name": "Jakarta Kota-Bogor"
   }
  },
  {
   "type": "Feature",
   "id": 15,
   "geometry": {
    "type": "Point",
    "coordinates": [
     106.834992823365,
     -6.33071224185903
    ]
   },
   "properties": {
    "FID": 15,
    "JALUR": "Merah",
    "RUTE": "Jakarta Kota - Bogor",
    "STASIUN": "LENTENG AGUNG",
    "Koordinat": 702986.12,
    "Koordina_1": 9299878.72,
    "_layer_id": 2,
    "_layer_name": "Jakarta Kota-Bogor"
   }
  },
  {
   "type": "Feature",
   "id": 16,
   "geometry": {
    "type": "Point",
    "coordinates": [
     106.834426884736,
     -6.33892628012907
    ]
   },
   "properties": {
    "FID": 16,
    "JALUR": "Merah",
    "RUTE": "Jakarta Kota - Bogor",
    "STASIUN": "UNIVERSITAS PANCASILA",
    "Koordinat": 702920.41,
    "Koordina_1": 9298970.5,
    "_layer_id": 2,
    "_layer_name": "Jakarta Kota-Bogor"
   }
  },
  {
   "type": "Feature",
   "id": 17,
   "geometry": {
    "type": "Point",
    "coordinates": [
     106.831722955731,
     -6.3607642712792
    ]
   },
   "properties": {
    "FID": 17,
    "JALUR": "Merah",
    "RUTE": "Jakarta Kota - Bogor",
    "STASIUN": "UNIVERSITAS INDONESIA",
    "Koordinat": 702612.47,
    "Koordina_1": 9296556.24,
    "_layer_id": 2,
    "_layer_name": "Jakarta Kota-Bogor"
   }
  },
  {
   "type": "Feature",
   "id": 18,
   "geometry": {
    "type": "Point",
    "coordinates": [
     106.832208045984,
     -6.36909389034645
    ]
   },
   "properties": {
    "FID": 18,
    "JALUR": "Merah",
    "RUTE": "Jakarta Kota - Bogor",
    "STASIUN": "PONDOK CINA",
    "Koordinat": 702662.84,
    "Koordina_1": 9295635.62,
    "_layer_id": 2,
    "_layer_name": "Jakarta Kota-Bogor"
   }
  },
  {
   "type": "Feature",
   "id": 19,
   "geometry": {
    "type": "Point",
    "coordinates": [
     106.821679790854,
     -6.39118949138654
    ]
   },
   "properties": {
    "FID": 19,
    "JALUR": "Merah",
    "RUTE": "Jakarta Kota - Bogor",
    "STASIUN": "DEPOK BARU",
    "Koordinat": 701489.13,
    "Koordina_1": 9293195.49,
    "_layer_id": 2,
    "_layer_name": "Jakarta Kota-Bogor"
   }
  },
  {
   "type": "Feature",
   "id": 20,
   "geometry": {
    "type": "Point",
    "coordinates": [
     106.817278045962,
     -6.40495523805507
    ]
   },
   "properties": {
    "FID": 20,
    "JALUR": "Merah",
    "RUTE": "Jakarta Kota - Bogor",
    "STASIUN": "DEPOK",
    "Koordinat": 700996.6,
    "Koordina_1": 9291675.19,
    "_layer_id": 2,
    "_layer_name": "Jakarta Kota-Bogor"
   }
  },
  {
   "type": "Feature",
   "id": 21,
   "geometry": {
    "type": "Point",
    "coordinates": [
     106.802518725844,
     -6.44880317932026
    ]
   },
   "properties": {
    "FID": 21,
    "JALUR": "Merah",
    "RUTE": "Jakarta Kota - Bogor",
    "STASIUN": "CITAYAM",
    "Koordinat": 699347.19,
    "Koordina_1": 9286831.46,
    "_layer_id": 2,
    "_layer_name": "Jakarta Kota-Bogor"
   }
  },
  {
   "type": "Feature",
   "id": 22,
   "geometry": {
    "type": "Point",
    "coordinates": [
     106.79491897854,
     -6.4932721153026
    ]
   },
   "properties": {
    "FID": 22,
    "JALUR": "Merah",
    "RUTE": "Jakarta Kota - Bogor",
    "STASIUN": "BOJONGGEDE",
    "Koordinat": 698489.11,
    "Koordina_1": 9281915.93,
    "_layer_id": 2,
    "_layer_name": "Jakarta Kota-Bogor"
   }
  },
  {
   "type": "Feature",
   "id": 23,
   "geometry": {
    "type": "Point",
    "coordinates": [
     106.800560398524,
     -6.53057943381739
    ]
   },
   "properties": {
    "FID": 23,
    "JALUR": "Merah",
    "RUTE": "Jakarta Kota - Bogor",
    "STASIUN": "CILEBUT",
    "Koordinat": 699098.16,
    "Koordina_1": 9277787.53,
    "_layer_id": 2,
    "_layer_name": "Jakarta Kota-Bogor"
   }
  },
  {
   "type": "Feature",
   "id": 24,
   "geometry": {
    "type": "Point",
    "coordinates": [
     106.790400452661,
     -6.59566421955098
    ]
   },
   "properties": {
    "FID": 24,
    "JALUR": "Merah",
    "RUTE": "Jakarta Kota - Bogor",
    "STASIUN": "BOGOR",
    "Koordinat": 697948.78,
    "Koordina_1": 9270593.7,
    "_layer_id": 2,
    "_layer_name": "Jakarta Kota-Bogor"
   }
  }
 ]
}