{
 "type": "FeatureCollection",
 "features": [
  {
   "type": "Feature",
   "id": 1,
   "geometry": {
    "type": "Point",
    "coordinates": [
     106.814619032721,
     -6.13754684436278
    ]
   },
   "properties": {
    "FID": 1,
    "JALUR": "Pink",
    "RUTE": "Jakarta Kota - Tanjung Priok",
    "STASIUN": "JAKARTA KOTA",
    "Koordinat": 700804.973713,
    "Koordina_1": 9321250.47697,
    "_layer_id": 3,
    "_layer_name": "Jakarta Kota-Tanjung Priok"
   }
  },
  {
   "type": "Feature",
   "id": 2,
   "geometry": {
    "type": "Point",
    "coordinates": [
     106.845035988241,
     -6.12803453919712
    ]
   },
   "properties": {
    "FID": 2,
    "JALUR": "Pink",
    "RUTE": "Jakarta Kota - Tanjung Priok",
    "STASIUN": "ANCOL",
    "Koordinat": 704175.328798,
    "Koordina_1": 9322290.66428,
    "_layer_id": 3,
    "_layer_name": "Jakarta Kota-Tanjung Priok"
   }
  },
  {
   "type": "Feature",
   "id": 3,
   "geometry": {
    "type": "Point",
    "coordinates": [
     106.881507588776,
     -6.11067972793722
    ]
   },
   "properties": {
    "FID": 3,
    "JALUR": "Pink",
    "RUTE": "Jakarta Kota - Tanjung Priok",
    "STASIUN": "TANJUNG PRIOK",
    "Koordinat": 708220.309969,
    "Koordina_1": 9324196.23681,
    "_layer_id": 3,
    "_layer_name": "Jakarta Kota-Tanjung Priok"
   }
  },
  {
   "type": "Feature",
   "id": 4,
   "geometry": {
    "type": "Point",
    "coordinates": [
     106.828327323957,
     -6.13292915497303
    ]
   },
   "properties": {
    "FID": 4,
    "JALUR": "Pink",
    "RUTE": "Jakarta Kota - Tanjung Priok",
    "STASIUN": "KAMPUNG BANDAN",
    "Koordinat": 702324.585603,
    "Koordina_1": 9321756.16876,
    "_layer_id": 3,
    "_layer_name": "Jakarta Kota-Tanjung Priok"
   }
  }
 ]
}