{
 "type": "FeatureCollection",
 "features": [
  {
   "type": "Feature",
   "id": 1,
   "geometry": {
    "type": "Point",
    "coordinates": [
     106.870386445559,
     -6.21514838240483
    ]
   },
   "properties": {
    "FID": 1,
    "JALUR": "Kuning",
    "RUTE": "Jatinegara - Bogor",
    "STASIUN": "JATINEGARA",
    "Koordinat": 706947.74,
    "Koordina_1": 9312646.74,
    "_layer_id": 4,
    "_layer_name": "Jatinegara-Bogor"
   }
  },
  {
   "type": "Feature",
   "id": 2,
   "geometry": {
    "type": "Point",
    "coordinates": [
     106.862247709085,
     -6.20925431626133
    ]
   },
   "properties": {
    "FID": 2,
    "JALUR": "Kuning",
    "RUTE": "Jatinegara - Bogor",
    "STASIUN": "PONDOK JATI",
    "Koordinat": 706049.23,
    "Koordina_1": 9313301.83,
    "_layer_id": 4,
    "_layer_name": "Jatinegara-Bogor"
   }
  },
  {
   "type": "Feature",
   "id": 3,
   "geometry": {
    "type": "Point",
    "coordinates": [
     106.856543407031,
     -6.19382226714693
    ]
   },
   "properties": {
    "FID": 3,
    "JALUR": "Kuning",
    "RUTE": "Jatinegara - Bogor",
    "STASIUN": "KRAMAT",
    "Koordinat": 705424.45,
    "Koordina_1": 9315010.85,
    "_layer_id": 4,
    "_layer_name": "Jatinegara-Bogor"
   }
  },
  {
   "type": "Feature",
   "id": 4,
   "geometry": {
    "type": "Point",
    "coordinates": [
     106.852536920864,
     -6.18839236474887
    ]
   },
   "properties": {
    "FID": 4,
    "JALUR": "Kuning",
    "RUTE": "Jatinegara - Bogor",
    "STASIUN": "GANG SENTIONG",
    "Koordinat": 704982.42,
    "Koordina_1": 9315613,
    "_layer_id": 4,
    "_layer_name": "Jatinegara-Bogor"
   }
  },
  {
   "type": "Feature",
   "id": 5,
   "geometry": {
    "type": "Point",
    "coordinates": [
     106.843661565856,
     -6.17574619163358
    ]
   },
   "properties": {
    "FID": 5,
    "JALUR": "Kuning",
    "RUTE": "Jatinegara - Bogor",
    "STASIUN": "PASAR SENEN",
    "Koordinat": 704005.07,
    "Koordina_1": 9317014.68,
    "_layer_id": 4,
    "_layer_name": "Jatinegara-Bogor"
   }
  },
  {
   "type": "Feature",
   "id": 6,
   "geometry": {
    "type": "Point",
    "coordinates": [
     106.841550524939,
     -6.16208155493997
    ]
   },
   "properties": {
    "FID": 6,
    "JALUR": "Kuning",
    "RUTE": "Jatinegara - Bogor",
    "STASIUN": "KEMAYORAN",
    "Koordinat": 703776.85,
    "Koordina_1": 9318527.1,
    "_layer_id": 4,
    "_layer_name": "Jatinegara-Bogor"
   }
  },
  {
   "type": "Feature",
   "id": 7,
   "geometry": {
    "type": "Point",
    "coordinates": [
     106.836744538169,
     -6.14504045627748
    ]
   },
   "properties": {
    "FID": 7,
    "JALUR": "Kuning",
    "RUTE": "Jatinegara - Bogor",
    "STASIUN": "RAJAWALI",
    "Koordinat": 703250.88,
    "Koordina_1": 9320413.17,
    "_layer_id": 4,
    "_layer_name": "Jatinegara-Bogor"
   }
  },
  {
   "type": "Feature",
   "id": 8,
   "geometry": {
    "type": "Point",
    "coordinates": [
     106.828327323957,
     -6.13292915497303
    ]
   },
   "properties": {
    "FID": 8,
    "JALUR": "Kuning",
    "RUTE": "Jatinegara - Bogor",
    "STASIUN": "KAMPUNG BANDAN",
    "Koordinat": 702324.585603,
    "Koordina_1": 9321756.16876,
    "_layer_id": 4,
    "_layer_name": "Jatinegara-Bogor"
   }
  },
  {
   "type": "Feature",
   "id": 9,
   "geometry": {
    "type": "Point",
    "coordinates": [
     106.800677179511,
     -6.14440631680364
    ]
   },
   "properties": {
    "FID": 9,
    "JALUR": "Kuning",
    "RUTE": "Jatinegara - Bogor",
    "STASIUN": "ANGKE",
    "Koordinat": 699258.79,
    "Koordina_1": 9320497.48,
    "_layer_id": 4,
    "_layer_name": "Jatinegara-Bogor"
   }
  },
  {
   "type": "Feature",
   "id": 10,
   "geometry": {
    "type": "Point",
    "coordinates": [
     106.801395831739,
     -6.1558564370769
    ]
   },
   "properties": {
    "FID": 10,
    "JALUR": "Kuning",
    "RUTE": "Jatinegara - Bogor",
    "STASIUN": "DURI",
    "Koordinat": 699334.87,
    "Koordina_1": 9319230.22,
    "_layer_id": 4,
    "_layer_name": "Jatinegara-Bogor"
   }
  },
  {
   "type": "Feature",
   "id": 11,
   "geometry": {
    "type": "Point",
    "coordinates": [
     106.810882041139,
     -6.18574883943633
    ]
   },
   "properties": {
    "FID": 11,
    "JALUR": "Kuning",
    "RUTE": "Jatinegara - Bogor",
    "STASIUN": "TANAH ABANG",
    "Koordinat": 700373.21,
    "Koordina_1": 9315920.76,
    "_layer_id": 4,
    "_layer_name": "Jatinegara-Bogor"
   }
  },
  {
   "type": "Feature",
   "id": 12,
   "geometry": {
    "type": "Point",
    "coordinates": [
     106.815831758354,
     -6.20070780319384
    ]
   },
   "properties": {
    "FID": 12,
    "JALUR": "Kuning",
    "RUTE": "Jatinegara - Bogor",
    "STASIUN": "KARET",
    "Koordinat": 700915.86,
    "Koordina_1": 9314264.66,
    "_layer_id": 4,
    "_layer_name": "Jatinegara-Bogor"
   }
  },
  {
   "type": "Feature",
   "id": 13,
   "geometry": {
    "type": "Point",
    "coordinates": [
     106.823359640435,
     -6.2023688918187
    ]
   },
   "properties": {
    "FID": 13,
    "JALUR": "Kuning",
    "RUTE": "Jatinegara - Bogor",
    "STASIUN": "SUDIRMAN",
    "Koordinat": 701748.14,
    "Koordina_1": 9314078.49,
    "_layer_id": 4,
    "_layer_name": "Jatinegara-Bogor"
   }
  },
  {
   "type": "Feature",
   "id": 14,
   "geometry": {
    "type": "Point",
    "coordinates": [
     106.8502821495,
     -6.20999554335852
    ]
   },
   "properties": {
    "FID": 14,
    "JALUR": "Kuning",
    "RUTE": "Jatinegara - Bogor",
    "STASIUN": "MANGGARAI",
    "Koordinat": 704725.28,
    "Koordina_1": 9313224.29,
    "_layer_id": 4,
    "_layer_name": "Jatinegara-Bogor"
   }
  },
  {
   "type": "Feature",
   "id": 15,
   "geometry": {
    "type": "Point",
    "coordinates": [
     106.858295121835,
     -6.22607009098912
    ]
   },
   "properties": {
    "FID": 15,
    "JALUR": "Kuning",
    "RUTE": "Jatinegara - Bogor",
    "STASIUN": "TEBET",
    "Koordinat": 705605.25,
    "Koordina_1": 9311442.91,
    "_layer_id": 4,
    "_layer_name": "Jatinegara-Bogor"
   }
  },
  {
   "type": "Feature",
   "id": 16,
   "geometry": {
    "type": "Point",
    "coordinates": [
     106.858825127852,
     -6.24267994000759
    ]
   },
   "properties": {
    "FID": 16,
    "JALUR": "Kuning",
    "RUTE": "Jatinegara - Bogor",
    "STASIUN": "CAWANG",
    "Koordinat": 705658.22,
    "Koordina_1": 9309605.99,
    "_layer_id": 4,
    "_layer_name": "Jatinegara-Bogor"
   }
  },
  {
   "type": "Feature",
   "id": 17,
   "geometry": {
    "type": "Point",
    "coordinates": [
     106.855034237353,
     -6.25535129328858
    ]
   },
   "properties": {
    "FID": 17,
    "JALUR": "Kuning",
    "RUTE": "Jatinegara - Bogor",
    "STASIUN": "DUREN KALIBATA",
    "Koordinat": 705233.75,
    "Koordina_1": 9308206.56,
    "_layer_id": 4,
    "_layer_name": "Jatinegara-Bogor"
   }
  },
  {
   "type": "Feature",
   "id": 18,
   "geometry": {
    "type": "Point",
    "coordinates": [
     106.851836234942,
     -6.26283430202492
    ]
   },
   "properties": {
    "FID": 18,
    "JALUR": "Kuning",
    "RUTE": "Jatinegara - Bogor",
    "STASIUN": "PASAR MINGGU BARU",
    "Koordinat": 704876.36,
    "Koordina_1": 9307379.76,
    "_layer_id": 4,
    "_layer_name": "Jatinegara-Bogor"
   }
  },
  {
   "type": "Feature",
   "id": 19,
   "geometry": {
    "type": "Point",
    "coordinates": [
     106.838846595934,
     -6.30785510049902
    ]
   },
   "properties": {
    "FID": 19,
    "JALUR": "Kuning",
    "RUTE": "Jatinegara - Bogor",
    "STASIUN": "TANJUNG BARAT",
    "Koordinat": 703421.01,
    "Koordina_1": 9302405.7,
    "_layer_id": 4,
    "_layer_name": "Jatinegara-Bogor"
   }
  },
  {
   "type": "Feature",
   "id": 20,
   "geometry": {
    "type": "Point",
    "coordinates": [
     106.834992823365,
     -6.33071224185903
    ]
   },
   "properties": {
    "FID": 20,
    "JALUR": "Kuning",
    "RUTE": "Jatinegara - Bogor",
    "STASIUN": "LENTENG AGUNG",
    "Koordinat": 702986.12,
    "Koordina_1": 9299878.72,
    "_layer_id": 4,
    "_layer_name": "Jatinegara-Bogor"
   }
  },
  {
   "type": "Feature",
   "id": 21,
   "geometry": {
    "type": "Point",
    "coordinates": [
     106.834426884736,
     -6.33892628012907
    ]
   },
   "properties": {
    "FID": 21,
    "JALUR": "Kuning",
    "RUTE": "Jatinegara - Bogor",
    "STASIUN": "UNIVERSITAS PANCASILA",
    "Koordinat": 702920.41,
    "Koordina_1": 9298970.5,
    "_layer_id": 4,
    "_layer_name": "Jatinegara-Bogor"
   }
  },
  {
   "type": "Feature",
   "id": 22,
   "geometry": {
    "type": "Point",
    "coordinates": [
     106.831722955731,
     -6.3607642712792
    ]
   },
   "properties": {
    "FID": 22,
    "JALUR": "Kuning",
    "RUTE": "Jatinegara - Bogor",
    "STASIUN": "UNIVERSITAS INDONESIA",
    "Koordinat": 702612.47,
    "Koordina_1": 9296556.24,
    "_layer_id": 4,
    "_layer_name": "Jatinegara-Bogor"
   }
  },
  {
   "type": "Feature",
   "id": 23,
   "geometry": {
    "type": "Point",
    "coordinates": [
     106.832208045984,
     -6.36909389034645
    ]
   },
   "properties": {
    "FID": 23,
    "JALUR": "Kuning",
    "RUTE": "Jatinegara - Bogor",
    "STASIUN": "PONDOK CINA",
    "Koordinat": 702662.84,
    "Koordina_1": 9295635.62,
    "_layer_id": 4,
    "_layer_name": "Jatinegara-Bogor"
   }
  },
  {
   "type": "Feature",
   "id": 24,
   "geometry": {
    "type": "Point",
    "coordinates": [
     106.821679790854,
     -6.39118949138654
    ]
   },
   "properties": {
    "FID": 24,
    "JALUR": "Kuning",
    "RUTE": "Jatinegara - Bogor",
    "STASIUN": "DEPOK BARU",
    "Koordinat": 701489.13,
    "Koordina_1": 9293195.49,
    "_layer_id": 4,
    "_layer_name": "Jatinegara-Bogor"
   }
  },
  {
   "type": "Feature",
   "id": 25,
   "geometry": {
    "type": "Point",
    "coordinates": [
     106.802518725844,
     -6.44880317932026
    ]
   },
   "properties": {
    "FID": 25,
    "JALUR": "Kuning",
    "RUTE": "Jatinegara - Bogor",
    "STASIUN": "CITAYAM",
    "Koordinat": 699347.19,
    "Koordina_1": 9286831.46,
    "_layer_id": 4,
    "_layer_name": "Jatinegara-Bogor"
   }
  },
  {
   "type": "Feature",
   "id": 26,
   "geometry": {
    "type": "Point",
    "coordinates": [
     106.79491897854,
     -6.4932721153026
    ]
   },
   "properties": {
    "FID": 26,
    "JALUR": "Kuning",
    "RUTE": "Jatinegara - Bogor",
    "STASIUN": "BOJONGGEDE",
    "Koordinat": 698489.11,
    "Koordina_1": 9281915.93,
    "_layer_id": 4,
    "_layer_name": "Jatinegara-Bogor"
   }
  },
  {
   "type": "Feature",
   "id": 27,
   "geometry": {
    "type": "Point",
    "coordinates": [
     106.800560398524,
     -6.53057943381739
    ]
   },
   "properties": {
    "FID": 27,
    "JALUR": "Kuning",
    "RUTE": "Jatinegara - Bogor",
    "STASIUN": "CILEBUT",
    "Koordinat": 699098.16,
    "Koordina_1": 9277787.53,
    "_layer_id": 4,
    "_layer_name": "Jatinegara-Bogor"
   }
  },
  {
   "type": "Feature",
   "id": 28,
   "geometry": {
    "type": "Point",
    "coordinates": [
     106.790400452661,
     -6.59566421955098
    ]
   },
   "properties": {
    "FID": 28,
    "JALUR": "Kuning",
    "RUTE": "Jatinegara - Bogor",
    "STASIUN": "BOGOR",
    "Koordinat": 697948.78,
    "Koordina_1": 9270593.7,
    "_layer_id": 4,
    "_layer_name": "Jatinegara-Bogor"
   }
  }
 ]
}