{
 "type": "FeatureCollection",
 "features": [
  {
   "type": "Feature",
   "id": 1,
   "geometry": {
    "type": "Point",
    "coordinates": [
     106.810882041139,
     -6.18574883943633
    ]
   },
   "properties": {
    "FID": 1,
    "JALUR": "Hijau",
    "RUTE": "Tanah Abang - Rangkasbitung",
    "STASIUN": "TANAH ABANG",
    "Koordinat": 700373.21,
    "Koordina_1": 9315920.76,
    "_layer_id": 5,
    "_layer_name": "Tanah Abang-Rangkasbitung"
   }
  },
  {
   "type": "Feature",
   "id": 2,
   "geometry": {
    "type": "Point",
    "coordinates": [
     106.782540193925,
     -6.2369826424717
    ]
   },
   "properties": {
    "FID": 2,
    "JALUR": "Hijau",
    "RUTE": "Tanah Abang - Rangkasbitung",
    "STASIUN": "KEBAYORAN",
    "Koordinat": 697216.76972,
    "Koordina_1": 9310265.44023,
    "_layer_id": 5,
    "_layer_name": "Tanah Abang-Rangkasbitung"
   }
  },
  {
   "type": "Feature",
   "id": 3,
   "geometry": {
    "type": "Point",
    "coordinates": [
     106.760720115674,
     -6.26215565648841
    ]
   },
   "properties": {
    "FID": 3,
    "JALUR": "Hijau",
    "RUTE": "Tanah Abang - Rangkasbitung",
    "STASIUN": "PONDOK BETUNG",
    "Koordinat": 694792.998,
    "Koordina_1": 9307489.822,
    "_layer_id": 5,
    "_layer_name": "Tanah Abang-Rangkasbitung"
   }
  },
  {
   "type": "Feature",
   "id": 4,
   "geometry": {
    "type": "Point",
    "coordinates": [
     106.744936716132,
     -6.27611236011849
    ]
   },
   "properties": {
    "FID": 4,
    "JALUR": "Hijau",
    "RUTE": "Tanah Abang - Rangkasbitung",
    "STASIUN": "PONDOK RANJI",
    "Koordinat": 693041.125087,
    "Koordina_1": 9305951.61124,
    "_layer_id": 5,
    "_layer_name": "Tanah Abang-Rangkasbitung"
   }
  },
  {
   "type": "Feature",
   "id": 5,
   "geometry": {
    "type": "Point",
    "coordinates": [
     106.729054501909,
     -6.28824715559121
    ]
   },
   "properties": {
    "FID": 5,
    "JALUR": "Hijau",
    "RUTE": "Tanah Abang - Rangkasbitung",
    "STASIUN": "JURANGMANGU",
    "Koordinat": 691278.931601,
    "Koordina_1": 9304615.94773,
    "_layer_id": 5,
    "_layer_name": "Tanah Abang-Rangkasbitung"
   }
  },
  {
   "type": "Feature",
   "id": 6,
   "geometry": {
    "type": "Point",
    "coordinates": [
     106.712768045807,
     -6.29664044670314
    ]
   },
   "properties": {
    "FID": 6,
    "JALUR": "Hijau",
    "RUTE": "Tanah Abang - Rangkasbitung",
    "STASIUN": "SUDIMARA",
    "Koordinat": 689474.140762,
    "Koordina_1": 9303693.78949,
    "_layer_id": 5,
    "_layer_name": "Tanah Abang-Rangkasbitung"
   }
  },
  {
   "type": "Feature",
   "id": 7,
   "geometry": {
    "type": "Point",
    "coordinates": [
     106.676206613744,
     -6.31504270884603
    ]
   },
   "properties": {
    "FID": 7,
    "JALUR": "Hijau",
    "RUTE": "Tanah Abang - Rangkasbitung",
    "STASIUN": "RAWA BUNTU",
    "Koordinat": 685421.803291,
    "Koordina_1": 9301670.84517,
    "_layer_id": 5,
    "_layer_name": "Tanah Abang-Rangkasbitung"
   }
  },
  {
   "type": "Feature",
   "id": 8,
   "geometry": {
    "type": "Point",
    "coordinates": [
     106.665615476544,
     -6.32018558227835
    ]
   },
   "properties": {
    "FID": 8,
    "JALUR": "Hijau",
    "RUTE": "Tanah Abang - Rangkasbitung",
    "STASIUN": "SERPONG",
    "Koordinat": 684247.644231,
    "Koordina_1": 9301106.61978,
    "_layer_id": 5,
    "_layer_name": "Tanah Abang-Rangkasbitung"
   }
  },
  {
   "type": "Feature",
   "id": 9,
   "geometry": {
    "type": "Point",
    "coordinates": [
     106.641028587218,
     -6.32471234002437
    ]
   },
   "properties": {
    "FID": 9,
    "JALUR": "Hijau",
    "RUTE": "Tanah Abang - Rangkasbitung",
    "STASIUN": "CISAUK",
    "Koordinat": 681525.551913,
    "Koordina_1": 9300614.41083,
    "_layer_id": 5,
    "_layer_name": "Tanah Abang-Rangkasbitung"
   }
  },
  {
   "type": "Feature",
   "id": 10,
   "geometry": {
    "type": "Point",
    "coordinates": [
     106.618956980687,
     -6.32950691002983
    ]
   },
   "properties": {
    "FID": 10,
    "JALUR": "Hijau",
    "RUTE": "Tanah Abang - Rangkasbitung",
    "STASIUN": "CICAYUR",
    "Koordinat": 679081.497507,
    "Koordina_1": 9300092.02446,
    "_layer_id": 5,
    "_layer_name": "Tanah Abang-Rangkasbitung"
   }
  },
  {
   "type": "Feature",
   "id": 11,
   "geometry": {
    "type": "Point",
    "coordinates": [
     106.569873033563,
     -6.34423855044858
    ]
   },
   "properties": {
    "FID": 11,
    "JALUR": "Hijau",
    "RUTE": "Tanah Abang - Rangkasbitung",
    "STASIUN": "PARUNG PANJANG",
    "Koordinat": 673646.419199,
    "Koordina_1": 9298479.22782,
    "_layer_id": 5,
    "_layer_name": "Tanah Abang-Rangkasbitung"
   }
  },
  {
   "type": "Feature",
   "id": 12,
   "geometry": {
    "type": "Point",
    "coordinates": [
     106.509730825291,
     -6.35434510509862
    ]
   },
   "properties": {
    "FID": 12,
    "JALUR": "Hijau",
    "RUTE": "Tanah Abang - Rangkasbitung",
    "STASIUN": "CILEJIT",
    "Koordinat": 666989.215177,
    "Koordina_1": 9297381.45804,
    "_layer_id": 5,
    "_layer_name": "Tanah Abang-Rangkasbitung"
   }
  },
  {
   "type": "Feature",
   "id": 13,
   "geometry": {
    "type": "Point",
    "coordinates": [
     106.492456222377,
     -6.33805131270945
    ]
   },
   "properties": {
    "FID": 13,
    "JALUR": "Hijau",
    "RUTE": "Tanah Abang - Rangkasbitung",
    "STASIUN": "DARU",
    "Koordinat": 665083.437069,
    "Koordina_1": 9299188.57715,
    "_layer_id": 5,
    "_layer_name": "Tanah Abang-Rangkasbitung"
   }
  },
  {
   "type": "Feature",
   "id": 14,
   "geometry": {
    "type": "Point",
    "coordinates": [
     106.461356547241,
     -6.32726587819023
    ]
   },
   "properties": {
    "FID": 14,
    "JALUR": "Hijau",
    "RUTE": "Tanah Abang - Rangkasbitung",
    "STASIUN": "TENJO",
    "Koordinat": 661645.920504,
    "Koordina_1": 9300391.18517,
    "_layer_id": 5,
    "_layer_name": "Tanah Abang-Rangkasbitung"
   }
  },
  {
   "type": "Feature",
   "id": 15,
   "geometry": {
    "type": "Point",
    "coordinates": [
     106.434766414831,
     -6.32846228683607
    ]
   },
   "properties": {
    "FID": 15,
    "JALUR": "Hijau",
    "RUTE": "Tanah Abang - Rangkasbitung",
    "STASIUN": "TIGARAKSA",
    "Koordinat": 658703.182022,
    "Koordina_1": 9300267.24218,
    "_layer_id": 5,
    "_layer_name": "Tanah Abang-Rangkasbitung"
   }
  },
  {
   "type": "Feature",
   "id": 16,
   "geometry": {
    "type": "Point",
    "coordinates": [
     106.411805476169,
     -6.33556032590875
    ]
   },
   "properties": {
    "FID": 16,
    "JALUR": "Hijau",
    "RUTE": "Tanah Abang - Rangkasbitung",
    "STASIUN": "CIKOYA",
    "Koordinat": 656160.649666,
    "Koordina_1": 9299489.32756,
    "_layer_id": 5,
    "_layer_name": "Tanah Abang-Rangkasbitung"
   }
  },
  {
   "type": "Feature",
   "id": 17,
   "geometry": {
    "type": "Point",
    "coordinates": [
     106.396165807072,
     -6.33226577651147
    ]
   },
   "properties": {
    "FID": 17,
    "JALUR": "Hijau",
    "RUTE": "Tanah Abang - Rangkasbitung",
    "STASIUN": "MAJA",
    "Koordinat": 654431.557713,
    "Koordina_1": 9299858.13284,
    "_layer_id": 5,
    "_layer_name": "Tanah Abang-Rangkasbitung"
   }
  },
  {
   "type": "Feature",
   "id": 18,
   "geometry": {
    "type": "Point",
    "coordinates": [
     106.797452227641,
     -6.20738784822711
    ]
   },
   "properties": {
    "FID": 18,
    "JALUR": "Hijau",
    "RUTE": "Tanah Abang - Rangkasbitung",
    "STASIUN": "PALMERAH",
    "Koordinat": 698878.934537,
    "Koordina_1": 9313533.0511,
    "_layer_id": 5,
    "_layer_name": "Tanah Abang-Rangkasbitung"
   }
  }
 ]
}