{"type": "FeatureCollection", "features": [{"type": "Feature", "geometry": {"type": "MultiLineString", "coordinates": [[[106.744935, -6.276462], [106.748618, -6.273658], [106.754331, -6.267754], [106.756547, -6.265486], [106.756935, -6.265138], [106.758592, -6.263996], [106.75957, -6.263299], [106.760031, -6.26291], [106.760571, -6.26232], [106.760975, -6.261625], [106.761218, -6.260996], [106.761489, -6.259871], [106.76179, -6.258674], [106.761973, -6.257985], [106.762264, -6.257386], [106.762568, -6.257032], [106.763032, -6.25657], [106.763867, -6.256071], [106.76512, -6.255397], [106.766773, -6.254584], [106.768063, -6.254083], [106.768999, -6.253562], [106.771102, -6.251886], [106.772782, -6.250452], [106.774083, -6.248961], [106.775397, -6.247425], [106.777758, -6.244597], [106.778844, -6.243323], [106.77999, -6.24193], [106.781029, -6.24066], [106.781433, -6.240041], [106.781874, -6.239021], [106.782296, -6.237799], [106.782925, -6.236003], [106.783248, -6.23514], [106.783437, -6.234817], [106.783908, -6.234036], [106.785038, -6.23212], [106.786087, -6.230397], [106.786928, -6.228977], [106.78833, -6.226597], [106.789566, -6.224518], [106.790032, -6.223526], [106.790683, -6.221942], [106.792122, -6.218502], [106.792494, -6.217676], [106.792879, -6.217039], [106.793568, -6.216105], [106.7941, -6.215514], [106.795502, -6.214204], [106.795737, -6.213908], [106.79594, -6.213523], [106.796082, -6.213168], [106.796138, -6.212765], [106.796136, -6.212245], [106.796055, -6.210891], [106.796177, -6.210268], [106.796528, -6.209368], [106.79742, -6.207422], [106.797924, -6.206368], [106.798522, -6.205313], [106.798856, -6.205035], [106.799696, -6.204544], [106.801453, -6.203724], [106.805987, -6.201642], [106.807257, -6.200996], [106.808077, -6.200257], [106.810086, -6.197886], [106.810314, -6.19735], [106.810465, -6.196785], [106.810492, -6.196182], [106.810079, -6.193796], [106.810016, -6.192131], [106.81091, -6.189492], [106.811024, -6.187817], [106.810822, -6.185884]], [[106.745202, -6.276259], [106.740494, -6.281455], [106.728703, -6.288908], [106.712625, -6.296891], [106.676009, -6.315029], [106.673091, -6.316452], [106.671225, -6.318209], [106.670159, -6.31958], [106.668789, -6.320189], [106.667114, -6.320341], [106.662241, -6.320037], [106.660566, -6.320189], [106.659043, -6.320798], [106.656149, -6.322778], [106.653865, -6.323235], [106.648992, -6.322778], [106.6429, -6.323235], [106.641302, -6.324709], [106.639119, -6.32518], [106.638184, -6.325387], [106.63224, -6.325671], [106.630565, -6.325976], [106.629195, -6.32628], [106.628151, -6.327599], [106.625997, -6.328717], [106.622103, -6.328933], [106.618992, -6.329174], [106.615031, -6.331302], [106.613662, -6.332829], [106.611986, -6.333895], [106.609702, -6.334199], [106.604119, -6.335698], [106.597062, -6.33694], [106.591732, -6.338159], [106.588078, -6.339529], [106.582818, -6.342242], [106.58228, -6.342379], [106.581072, -6.343184], [106.580616, -6.344098], [106.579702, -6.344555], [106.578788, -6.344555], [106.57757, -6.344707], [106.570869, -6.344402], [106.566301, -6.344098], [106.56356, -6.344098], [106.561428, -6.344402], [106.557164, -6.346534], [106.547874, -6.351407], [106.546656, -6.351103], [106.544372, -6.350951], [106.543763, -6.351407], [106.541631, -6.352321], [106.538737, -6.354453], [106.536757, -6.35491], [106.534625, -6.35491], [106.532646, -6.355215], [106.530514, -6.355671], [106.528839, -6.35689], [106.526097, -6.356585], [106.523509, -6.355671], [106.52229, -6.355367], [106.520463, -6.356128], [106.518635, -6.35491], [106.516808, -6.353539], [106.514981, -6.353692], [106.51361, -6.35491], [106.511783, -6.355367], [106.510869, -6.355367], [106.508581, -6.353463], [106.507214, -6.351255], [106.505387, -6.349275], [106.502036, -6.345621], [106.498229, -6.343945], [106.494851, -6.342004], [106.493235, -6.340236], [106.491072, -6.334656], [106.490158, -6.333895], [106.48894, -6.333438], [106.487265, -6.333742], [106.484676, -6.334504], [106.483305, -6.334504], [106.480259, -6.333438], [106.473863, -6.330697], [106.471275, -6.329783], [106.467315, -6.328869], [106.462747, -6.32826], [106.46031, -6.32628], [106.458787, -6.326128], [106.456655, -6.326585], [106.449955, -6.326737], [106.44097, -6.326889], [106.438533, -6.327194], [106.434117, -6.328412], [106.425741, -6.332372], [106.41965, -6.334504], [106.4163, -6.335113], [106.408533, -6.336331], [106.405487, -6.336179], [106.401832, -6.335113], [106.393152, -6.331001], [106.389193, -6.329631], [106.387061, -6.329631], [106.377162, -6.330697], [106.373812, -6.331306], [106.370309, -6.332372], [106.36437, -6.332219], [106.363, -6.331915], [106.361324, -6.331001], [106.359192, -6.329326], [106.357517, -6.329174], [106.354929, -6.329783], [106.351578, -6.331306], [106.346553, -6.333133], [106.34305, -6.334047], [106.335131, -6.334656], [106.326451, -6.33557], [106.322492, -6.33557], [106.319141, -6.335265], [106.317314, -6.33557], [106.315182, -6.335874], [106.312745, -6.336483], [106.310461, -6.336636], [106.3097, -6.337093], [106.307415, -6.338159], [106.300563, -6.341052], [106.298431, -6.341204], [106.292948, -6.340747], [106.287923, -6.340138], [106.284268, -6.341052], [106.281984, -6.341204], [106.279699, -6.341052], [106.276501, -6.341966], [106.274065, -6.342727], [106.270867, -6.342575], [106.269496, -6.343184], [106.268583, -6.343793], [106.26843, -6.345773], [106.268735, -6.347448], [106.268278, -6.348666], [106.266635, -6.350031], [106.262796, -6.352017], [106.259141, -6.353539], [106.257009, -6.353692], [106.253509, -6.352823], [106.251679, -6.35293]]]}, "properties": {"nama": "Serpong Line", "line": "R", "panjang_km": 73.07, "sumber": "Jalur KRL, data Pak Fabian (LapakGIS)"}}, {"type": "Feature", "geometry": {"type": "MultiLineString", "coordinates": [[[106.814647, -6.137546], [106.817639, -6.136664], [106.818948, -6.136349], [106.819796, -6.136328], [106.820097, -6.136327], [106.820366, -6.136369], [106.820707, -6.136504], [106.821016, -6.136654], [106.821235, -6.136804], [106.821484, -6.13704], [106.821685, -6.137305], [106.821862, -6.137691], [106.82233, -6.13953], [106.822559, -6.14017], [106.822718, -6.140607], [106.823523, -6.142108], [106.825028, -6.144561], [106.825527, -6.145368], [106.825919, -6.146036], [106.826328, -6.146944], [106.826606, -6.147855], [106.826858, -6.149027], [106.827108, -6.150494], [106.827234, -6.151289], [106.827312, -6.152359], [106.827355, -6.153466], [106.82746, -6.158671], [106.827493, -6.159973], [106.827628, -6.160621], [106.827887, -6.161465], [106.828234, -6.162153], [106.828693, -6.162836], [106.829194, -6.163506], [106.829786, -6.164399], [106.830128, -6.165155], [106.830276, -6.165646], [106.830415, -6.166284], [106.830487, -6.167382], [106.830468, -6.16829], [106.830424, -6.168825], [106.830314, -6.169331], [106.829999, -6.170502], [106.82984, -6.171095], [106.829759, -6.171626], [106.829726, -6.172305], [106.829753, -6.172825], [106.829841, -6.173424], [106.830012, -6.17417], [106.830303, -6.175493], [106.83067, -6.176841], [106.830905, -6.177493], [106.83159, -6.179493], [106.83176, -6.18007], [106.831851, -6.180529], [106.832035, -6.181881], [106.832131, -6.182553], [106.832573, -6.185863], [106.832783, -6.186619], [106.833015, -6.187232], [106.833405, -6.187995], [106.833956, -6.188815], [106.83522, -6.19049], [106.836906, -6.192734], [106.849991, -6.210306], [106.850771, -6.211323], [106.851963, -6.212923], [106.852348, -6.213435], [106.852404, -6.213493], [106.85255, -6.213646], [106.852744, -6.21386], [106.852945, -6.213996], [106.853308, -6.214196], [106.853667, -6.214342], [106.853897, -6.214402], [106.854338, -6.214465], [106.854794, -6.21446], [106.855109, -6.214412], [106.855621, -6.214227], [106.85594, -6.214092], [106.856809, -6.213724], [106.857744, -6.213329], [106.8581, -6.213178], [106.85984, -6.212442], [106.860132, -6.212318], [106.860247, -6.21227], [106.860497, -6.212164], [106.861597, -6.211698], [106.862184, -6.211552], [106.86259, -6.211551], [106.863085, -6.211635], [106.863677, -6.211877], [106.864472, -6.212492], [106.86449, -6.212506], [106.865298, -6.213254], [106.86585, -6.213764], [106.86669, -6.214498], [106.866857, -6.214643], [106.86686, -6.214646], [106.867076, -6.214786], [106.867429, -6.214915], [106.867787, -6.214977], [106.86817, -6.215012], [106.868199, -6.215013], [106.868231, -6.215013], [106.86868, -6.215024], [106.869401, -6.215004], [106.870289, -6.214979], [106.871505, -6.215013], [106.872118, -6.21503], [106.87282, -6.214993], [106.874311, -6.214914], [106.874329, -6.214913], [106.875381, -6.214857], [106.876434, -6.214785], [106.877385, -6.214721], [106.87827, -6.21466], [106.878288, -6.214659], [106.878503, -6.214646], [106.879402, -6.214589], [106.881134, -6.214479], [106.885154, -6.214225], [106.887697, -6.214125], [106.889321, -6.213545], [106.891136, -6.213228], [106.901093, -6.213333], [106.904908, -6.213419], [106.905082, -6.213432], [106.905259, -6.213446], [106.905672, -6.213477], [106.906382, -6.21356], [106.907413, -6.213681], [106.908727, -6.213841], [106.914951, -6.214603], [106.915229, -6.214637], [106.916717, -6.214819], [106.918428, -6.215035], [106.921322, -6.215386], [106.921332, -6.215387], [106.921415, -6.215397], [106.924741, -6.2158], [106.925387, -6.215888], [106.927865, -6.216167], [106.928777, -6.21627], [106.933579, -6.216811], [106.934121, -6.21688], [106.937821, -6.217358], [106.939556, -6.217582], [106.941826, -6.217836], [106.942041, -6.21786], [106.944841, -6.218173], [106.945109, -6.218203], [106.94582, -6.218283], [106.946848, -6.218398], [106.949359, -6.218749], [106.949563, -6.218777], [106.949828, -6.218814], [106.950093, -6.218851], [106.952567, -6.219197], [106.962364, -6.220293], [106.968486, -6.221016], [106.970494, -6.221181], [106.97389, -6.221608], [106.97501, -6.221815], [106.976455, -6.222383], [106.989187, -6.230187], [106.998569, -6.235959], [106.999461, -6.236599], [107.00351, -6.238769], [107.006887, -6.242146], [107.014727, -6.245403], [107.035472, -6.253001], [107.067674, -6.261565], [107.072981, -6.263012], [107.074429, -6.263133], [107.075876, -6.262771], [107.077926, -6.262771], [107.080821, -6.262168], [107.096621, -6.259635], [107.10832, -6.257826], [107.119416, -6.256137], [107.13003, -6.254449], [107.13787, -6.253243], [107.139437, -6.253363], [107.141367, -6.253846], [107.144744, -6.254449]]]}, "properties": {"nama": "Jakarta Kota Line", "line": "C", "panjang_km": 44.04, "sumber": "Jalur KRL, data Pak Fabian (LapakGIS)"}}, {"type": "Feature", "geometry": {"type": "MultiLineString", "coordinates": [[[106.870296, -6.214979], [106.870289, -6.214979], [106.869401, -6.215004], [106.86868, -6.215024], [106.868231, -6.215013], [106.868199, -6.215013], [106.86817, -6.215012], [106.867787, -6.214977], [106.867429, -6.214915], [106.867076, -6.214786], [106.86686, -6.214646], [106.866857, -6.214643], [106.86669, -6.214498], [106.86585, -6.213764], [106.864378, -6.212343], [106.863766, -6.211765], [106.863491, -6.211487], [106.863268, -6.211275], [106.862903, -6.210797], [106.862613, -6.210097], [106.86234, -6.209266], [106.860013, -6.200743], [106.858972, -6.197461], [106.858322, -6.196172], [106.85654, -6.193869], [106.855188, -6.191984], [106.850654, -6.185905], [106.846588, -6.180457], [106.846395, -6.179998], [106.846163, -6.179234], [106.845717, -6.177455], [106.845273, -6.176309], [106.844874, -6.175583], [106.844442, -6.174518], [106.843582, -6.172236], [106.843313, -6.171176], [106.843106, -6.170315], [106.843078, -6.16984], [106.843085, -6.169215], [106.843085, -6.167705], [106.843027, -6.167229], [106.842924, -6.166811], [106.841863, -6.162837], [106.841598, -6.162125], [106.840923, -6.159902], [106.840355, -6.15805], [106.840027, -6.156604], [106.839204, -6.153479], [106.838791, -6.151602], [106.838007, -6.149052], [106.837212, -6.146371], [106.837116, -6.146124], [106.836939, -6.14546], [106.836689, -6.144672], [106.836443, -6.14417], [106.836126, -6.143669], [106.835816, -6.143254], [106.835413, -6.142803], [106.834824, -6.142339], [106.834378, -6.142096], [106.832712, -6.14142], [106.832037, -6.141128], [106.831513, -6.140757], [106.831146, -6.140327], [106.830907, -6.13989], [106.830727, -6.139475], [106.830661, -6.139023], [106.830671, -6.13786], [106.830711, -6.134838], [106.830486, -6.13415], [106.830054, -6.133499], [106.829484, -6.132946], [106.829503, -6.132975], [106.82893, -6.132674], [106.82825, -6.132313], [106.827647, -6.132066], [106.82692, -6.131963], [106.826279, -6.132032], [106.825429, -6.132217], [106.823882, -6.132567], [106.822553, -6.132725], [106.82176, -6.132909], [106.820928, -6.132902], [106.819904, -6.13259], [106.819196, -6.132315], [106.817251, -6.131212], [106.815805, -6.130432], [106.815221, -6.130261], [106.814026, -6.13005], [106.813681, -6.130047], [106.81329, -6.130105], [106.809895, -6.130981], [106.806217, -6.13195], [106.803113, -6.132726], [106.801928, -6.133103], [106.80106, -6.133728], [106.80067, -6.134275], [106.800433, -6.134745], [106.800263, -6.13531], [106.800332, -6.138061], [106.800566, -6.141814], [106.800689, -6.144024], [106.80085, -6.147296], [106.801062, -6.150446], [106.801139, -6.152003], [106.801338, -6.155806], [106.801945, -6.165644], [106.801968, -6.166311], [106.802014, -6.167029], [106.802181, -6.167681], [106.802413, -6.168298], [106.804639, -6.17157], [106.806506, -6.174248], [106.809396, -6.17848], [106.809778, -6.178981], [106.810117, -6.17954], [106.810246, -6.179963], [106.810305, -6.180285], [106.810401, -6.181074], [106.810598, -6.183372], [106.810822, -6.185884], [106.811024, -6.187817], [106.81091, -6.189492], [106.810309, -6.191266], [106.810298, -6.192352], [106.810288, -6.192926], [106.810376, -6.194074], [106.810534, -6.194899], [106.810836, -6.195771], [106.811612, -6.197611], [106.81199, -6.198599], [106.812621, -6.199614], [106.813369, -6.200119], [106.814596, -6.200564], [106.817048, -6.201004], [106.823561, -6.202538], [106.830295, -6.203979], [106.835826, -6.204767], [106.8378, -6.205238], [106.841539, -6.206511], [106.842704, -6.206447], [106.8434, -6.206165], [106.844202, -6.20576], [106.845196, -6.205642], [106.845846, -6.205774], [106.846536, -6.206097], [106.847299, -6.2067], [106.849991, -6.210306], [106.852023, -6.212917], [106.853158, -6.214633], [106.855223, -6.217257], [106.85628, -6.218689], [106.85741, -6.220407], [106.857965, -6.221889], [106.858279, -6.222892], [106.858393, -6.230295], [106.858811, -6.242838], [106.858593, -6.246322], [106.858264, -6.248094], [106.854976, -6.255472], [106.850768, -6.264675], [106.846624, -6.274038], [106.845916, -6.276696], [106.844507, -6.283877], [106.843447, -6.288259], [106.841242, -6.293506], [106.840322, -6.297169], [106.840188, -6.299825], [106.838718, -6.30995], [106.837099, -6.318711], [106.836664, -6.32103], [106.835807, -6.322124], [106.834665, -6.323736], [106.833637, -6.325232], [106.833527, -6.326553], [106.833762, -6.328102], [106.834168, -6.329421], [106.834969, -6.330717], [106.835385, -6.332575], [106.835505, -6.334182], [106.835224, -6.335848], [106.834394, -6.338786], [106.833693, -6.341078], [106.833471, -6.343318], [106.831793, -6.355668], [106.83157, -6.357506], [106.831633, -6.358884], [106.831771, -6.360484], [106.832107, -6.363188], [106.831918, -6.366577], [106.83193, -6.369634], [106.829583, -6.378661], [106.826906, -6.382409], [106.823784, -6.387055], [106.821627, -6.391318], [106.819478, -6.394845], [106.817691, -6.396795], [106.817402, -6.399637], [106.817198, -6.404208], [106.811522, -6.427618], [106.807159, -6.43775], [106.804562, -6.442625], [106.802392, -6.447422], [106.801996, -6.449563], [106.80125, -6.453475], [106.800679, -6.456673], [106.800793, -6.459528], [106.801021, -6.461356], [106.801935, -6.46581], [106.80262, -6.469008], [106.80262, -6.471635], [106.802735, -6.473919], [106.802735, -6.476432], [106.802278, -6.478488], [106.801593, -6.480087], [106.800222, -6.4818], [106.798623, -6.48397], [106.796567, -6.486369], [106.795539, -6.48831], [106.795311, -6.490024], [106.795082, -6.491623], [106.795197, -6.493793], [106.795539, -6.501102], [106.795768, -6.507041], [106.796339, -6.50944], [106.79691, -6.51161], [106.796796, -6.513666], [106.796475, -6.515639], [106.797595, -6.516521], [106.798166, -6.517549], [106.799651, -6.518806], [106.800793, -6.520861], [106.80125, -6.522346], [106.80125, -6.523945], [106.800907, -6.526572], [106.800679, -6.530113], [106.799308, -6.543019], [106.799537, -6.545417], [106.799651, -6.548387], [106.801478, -6.556039], [106.802278, -6.559123], [106.802735, -6.562435], [106.802278, -6.564263], [106.801707, -6.566661], [106.799994, -6.568831], [106.797233, -6.570529], [106.795425, -6.571801], [106.794169, -6.572943], [106.793255, -6.574656], [106.79257, -6.576826], [106.792798, -6.578768], [106.793255, -6.581052], [106.793418, -6.583753], [106.791081, -6.591445], [106.790285, -6.597842]], [[106.800679, -6.456673], [106.802392, -6.459186], [106.804334, -6.460785], [106.806732, -6.462041], [106.810375, -6.462026], [106.816098, -6.461584], [106.822836, -6.460785], [106.825463, -6.460442], [106.828661, -6.461013], [106.836999, -6.462955], [106.845908, -6.465125], [106.847621, -6.465011], [106.854816, -6.463754], [106.861212, -6.464325], [106.871263, -6.466381], [106.876631, -6.467181], [106.879144, -6.467638], [106.88257, -6.469122], [106.886796, -6.470721], [106.890451, -6.473006], [106.892964, -6.474034], [106.894449, -6.474148], [106.895933, -6.473463], [106.897418, -6.472549], [106.898903, -6.471292], [106.900502, -6.469579], [106.902786, -6.468209], [106.904509, -6.46739]]]}, "properties": {"nama": "Bogor Line", "line": "B", "panjang_km": 83.94, "sumber": "Jalur KRL, data Pak Fabian (LapakGIS)"}}, {"type": "Feature", "geometry": {"type": "MultiLineString", "coordinates": [[[106.814647, -6.137546], [106.817639, -6.136664], [106.820223, -6.136043], [106.820715, -6.135811], [106.821511, -6.135349], [106.822174, -6.134917], [106.82258, -6.134709], [106.823134, -6.134507], [106.828005, -6.133122], [106.828769, -6.132846], [106.830421, -6.132185], [106.831676, -6.131702], [106.832292, -6.131428], [106.833246, -6.130917], [106.834088, -6.130455], [106.834589, -6.130216], [106.835127, -6.130028], [106.835714, -6.129854], [106.83628, -6.129701], [106.842912, -6.12849], [106.846897, -6.127788], [106.849983, -6.127251], [106.851722, -6.126853], [106.853068, -6.126398], [106.855836, -6.125106], [106.857802, -6.124229], [106.860065, -6.123341], [106.861898, -6.122645], [106.862787, -6.122432], [106.866331, -6.121749], [106.867601, -6.121343], [106.872197, -6.11793], [106.87971, -6.112105], [106.880718, -6.111397]], [[106.845484, -6.128037], [106.844686, -6.128366], [106.844199, -6.128662], [106.843741, -6.129058], [106.843384, -6.12949], [106.843078, -6.130008], [106.842644, -6.131107], [106.841791, -6.133192], [106.840653, -6.136045], [106.8398, -6.138222], [106.839239, -6.139624], [106.838101, -6.142448], [106.83749, -6.144], [106.837185, -6.144891], [106.837136, -6.145387], [106.837167, -6.146253]]]}, "properties": {"nama": "Tanjung Priok Line", "line": "TP", "panjang_km": 10.26, "sumber": "Jalur KRL, data Pak Fabian (LapakGIS)"}}, {"type": "Feature", "geometry": {"type": "MultiLineString", "coordinates": [[[106.801347, -6.155961], [106.801427, -6.157276], [106.80137, -6.158409], [106.801246, -6.159121], [106.800997, -6.159714], [106.800748, -6.160068], [106.800378, -6.160392], [106.799436, -6.160868], [106.797789, -6.161561], [106.79601, -6.162153], [106.795556, -6.162245], [106.795018, -6.162282], [106.793118, -6.162223], [106.780011, -6.161723], [106.774191, -6.161509], [106.77355, -6.161473], [106.769236, -6.160856], [106.764396, -6.160212], [106.759841, -6.159318], [106.754115, -6.158079], [106.7528, -6.157934], [106.751304, -6.157973], [106.741841, -6.158808], [106.739547, -6.159045], [106.73714, -6.159799], [106.735364, -6.160609], [106.728598, -6.161722], [106.723234, -6.162716], [106.709894, -6.164953], [106.703796, -6.166023], [106.696485, -6.167175], [106.690827, -6.168103], [106.682761, -6.169411], [106.680836, -6.169739], [106.664881, -6.172277], [106.64635, -6.175238], [106.632866, -6.176995], [106.63126, -6.177151]]]}, "properties": {"nama": "Tangerang Line", "line": "T", "panjang_km": 19.5, "sumber": "Jalur KRL, data Pak Fabian (LapakGIS)"}}, {"type": "Feature", "geometry": {"type": "MultiLineString", "coordinates": [[[107.019671, -6.247214], [107.014727, -6.245403], [107.009642, -6.243291], [107.006887, -6.242146], [107.005466, -6.240725], [107.00351, -6.238769], [106.999461, -6.236599], [106.998569, -6.235959], [106.996078, -6.234427], [106.996078, -6.234427], [106.991919, -6.231868], [106.979448, -6.224194], [106.976455, -6.222383], [106.97501, -6.221815], [106.97389, -6.221608], [106.972474, -6.221451], [106.970494, -6.221181], [106.968486, -6.221016], [106.962364, -6.220293], [106.952567, -6.219197], [106.950093, -6.218851], [106.949828, -6.218814], [106.949563, -6.218777], [106.946848, -6.218398], [106.94582, -6.218283], [106.944841, -6.218173], [106.942041, -6.21786], [106.939556, -6.217582], [106.933579, -6.216811], [106.925387, -6.215888], [106.924741, -6.2158], [106.921332, -6.215387], [106.918428, -6.215035], [106.916717, -6.214819], [106.907413, -6.213681], [106.905672, -6.213477], [106.904908, -6.213419], [106.901093, -6.213333], [106.900968, -6.213331], [106.900867, -6.21333], [106.900834, -6.21333], [106.900759, -6.213329], [106.900625, -6.213328], [106.900582, -6.213327], [106.900562, -6.213327], [106.900206, -6.213323], [106.899671, -6.213318], [106.898493, -6.213305], [106.891409, -6.213231], [106.891136, -6.213228], [106.889321, -6.213545], [106.887697, -6.214125], [106.885154, -6.214225], [106.881134, -6.214479], [106.878288, -6.214659], [106.87827, -6.21466], [106.877385, -6.214721], [106.876434, -6.214785], [106.875381, -6.214857], [106.874329, -6.214913], [106.87282, -6.214993], [106.872118, -6.21503], [106.870289, -6.214979], [106.869401, -6.215004], [106.86868, -6.215024], [106.868231, -6.215013], [106.868199, -6.215013], [106.86817, -6.215012], [106.867787, -6.214977], [106.867429, -6.214915], [106.867076, -6.214786], [106.86686, -6.214646], [106.866857, -6.214643], [106.86585, -6.213764], [106.865298, -6.213254], [106.86449, -6.212506], [106.864472, -6.212492], [106.863677, -6.211877], [106.863085, -6.211635], [106.86259, -6.211551], [106.862184, -6.211552], [106.861597, -6.211698], [106.860247, -6.21227], [106.860132, -6.212318], [106.8581, -6.213178], [106.857744, -6.213329], [106.85594, -6.214092], [106.855621, -6.214227], [106.855109, -6.214412], [106.854794, -6.21446], [106.854338, -6.214465], [106.853897, -6.214402], [106.853667, -6.214342], [106.853308, -6.214196], [106.852945, -6.213996], [106.852744, -6.21386], [106.85255, -6.213646], [106.852404, -6.213493], [106.852348, -6.213435], [106.851963, -6.212923], [106.850771, -6.211323], [106.850508, -6.21097], [106.850113, -6.210463], [106.849991, -6.210306], [106.848224, -6.207939], [106.847299, -6.2067], [106.846536, -6.206097], [106.845846, -6.205774], [106.845196, -6.205642], [106.844202, -6.20576], [106.8434, -6.206165], [106.842704, -6.206447], [106.841539, -6.206511], [106.8378, -6.205238], [106.835826, -6.204767], [106.830295, -6.203979], [106.823561, -6.202538], [106.817048, -6.201004], [106.814596, -6.200564], [106.813369, -6.200119], [106.812621, -6.199614], [106.81199, -6.198599], [106.811612, -6.197611], [106.810836, -6.195771], [106.810534, -6.194899], [106.810376, -6.194074], [106.810288, -6.192926], [106.810298, -6.192352], [106.810309, -6.191266], [106.81091, -6.189492], [106.810933, -6.189154], [106.81094, -6.189058], [106.810953, -6.188859], [106.810968, -6.188639], [106.811004, -6.188119], [106.811024, -6.187817], [106.811001, -6.187596], [106.810828, -6.185937], [106.810822, -6.185884], [106.810796, -6.185588], [106.810634, -6.183775], [106.810632, -6.18376], [106.810598, -6.183372], [106.810503, -6.182262], [106.810448, -6.181626], [106.810401, -6.181074], [106.810391, -6.180991], [106.810305, -6.180285], [106.810274, -6.180116], [106.810246, -6.179963], [106.810199, -6.179808], [106.810117, -6.17954], [106.809833, -6.179072], [106.809778, -6.178981], [106.809434, -6.17853], [106.809396, -6.17848], [106.80919, -6.178179], [106.808355, -6.176956], [106.807895, -6.176282], [106.806892, -6.174814], [106.806506, -6.174248], [106.806362, -6.174042], [106.805361, -6.172606], [106.804708, -6.171668], [106.804639, -6.17157], [106.803988, -6.170613], [106.802992, -6.16915], [106.802482, -6.168399], [106.802413, -6.168298], [106.802181, -6.167681], [106.80203, -6.167094], [106.802014, -6.167029], [106.801968, -6.166311], [106.801958, -6.166018], [106.801955, -6.165925], [106.801945, -6.165644], [106.801865, -6.164351], [106.801808, -6.163431], [106.801713, -6.161891], [106.80165, -6.16086], [106.801577, -6.159686], [106.801516, -6.158702], [106.801442, -6.157503], [106.801447, -6.157482], [106.801428, -6.157265], [106.801391, -6.156668]], [[106.680598, -6.169777], [106.68076, -6.169751], [106.680836, -6.169739], [106.682761, -6.169411], [106.690827, -6.168103], [106.69339, -6.167683], [106.696061, -6.167245], [106.696485, -6.167175], [106.697189, -6.167064], [106.698449, -6.166866], [106.700372, -6.166563], [106.702203, -6.166274], [106.703538, -6.166063], [106.703796, -6.166023], [106.705622, -6.165702], [106.707104, -6.165443], [106.708469, -6.165203], [106.709894, -6.164953], [106.710783, -6.164804], [106.712151, -6.164575], [106.714791, -6.164132], [106.715911, -6.163944], [106.718488, -6.163512], [106.719917, -6.163272], [106.72194, -6.162933], [106.723234, -6.162716], [106.723505, -6.162666], [106.724049, -6.162565], [106.726091, -6.162187], [106.727223, -6.161977], [106.728598, -6.161722], [106.735364, -6.160609], [106.73714, -6.159799], [106.739547, -6.159045], [106.741841, -6.158808], [106.751304, -6.157973], [106.7528, -6.157934], [106.754115, -6.158079], [106.756116, -6.158512], [106.75816, -6.158954], [106.759571, -6.159259], [106.759841, -6.159318], [106.760514, -6.159449], [106.76193, -6.159727], [106.764396, -6.160212], [106.765393, -6.160344], [106.767302, -6.160598], [106.769236, -6.160856], [106.769707, -6.160923], [106.77007, -6.160975], [106.772616, -6.161339], [106.77355, -6.161473], [106.774191, -6.161509], [106.775742, -6.161566], [106.778178, -6.161655], [106.780011, -6.161723], [106.781346, -6.161774], [106.783682, -6.161863], [106.786844, -6.161984], [106.788876, -6.162061], [106.792018, -6.162181], [106.793118, -6.162223], [106.793246, -6.162227], [106.794125, -6.162255], [106.795018, -6.162282], [106.795556, -6.162245], [106.795789, -6.162198], [106.79601, -6.162153], [106.79759, -6.161627], [106.797789, -6.161561], [106.798159, -6.161406], [106.799247, -6.160947], [106.799436, -6.160868], [106.800378, -6.160392], [106.800477, -6.160306], [106.800699, -6.160111], [106.800748, -6.160068], [106.800997, -6.159714], [106.801246, -6.159121], [106.80137, -6.158409], [106.801427, -6.157276], [106.801428, -6.157271]], [[106.68076, -6.169751], [106.676566, -6.170418], [106.67631, -6.170459], [106.675662, -6.170562], [106.675291, -6.170621], [106.672328, -6.171092], [106.671683, -6.171195], [106.671088, -6.171289], [106.669715, -6.171508], [106.666178, -6.17207], [106.664881, -6.172277], [106.662616, -6.172639], [106.661384, -6.172695], [106.659783, -6.172796], [106.657788, -6.173113], [106.656438, -6.173429], [106.654288, -6.173878], [106.652842, -6.17405], [106.651814, -6.173981], [106.651049, -6.173709], [106.650354, -6.173256], [106.649802, -6.172672], [106.649333, -6.1718], [106.649104, -6.171035], [106.649113, -6.16997], [106.649373, -6.16918], [106.650027, -6.168125], [106.654592, -6.163828], [106.657221, -6.161418], [106.658422, -6.160113], [106.659926, -6.158602], [106.660268, -6.158186], [106.660468, -6.157783], [106.660487, -6.157018], [106.660069, -6.152913], [106.660073, -6.152363], [106.660304, -6.149599], [106.660236, -6.14881], [106.660096, -6.147997], [106.659044, -6.146194], [106.658043, -6.145246], [106.657534, -6.144906], [106.656158, -6.144229], [106.654883, -6.143605], [106.653507, -6.142987], [106.652657, -6.14272], [106.65188, -6.142591], [106.650595, -6.142697], [106.649885, -6.142879], [106.648751, -6.143331], [106.647038, -6.14403], [106.645271, -6.144753], [106.64212, -6.146043], [106.641469, -6.146332], [106.640831, -6.146752], [106.639829, -6.147491], [106.639048, -6.148044], [106.638362, -6.148381], [106.637544, -6.148587], [106.636737, -6.148607], [106.635876, -6.148442], [106.635463, -6.1483], [106.634745, -6.147901], [106.633924, -6.147108], [106.633563, -6.146547], [106.633244, -6.145789], [106.633141, -6.145251], [106.633114, -6.144306], [106.633182, -6.142882], [106.633238, -6.141781], [106.633263, -6.141396], [106.633439, -6.138549], [106.633569, -6.136732], [106.633672, -6.136286], [106.633824, -6.135912], [106.633996, -6.135582], [106.634628, -6.134771], [106.635291, -6.134237], [106.635945, -6.133905], [106.637492, -6.133283], [106.643007, -6.13107], [106.649367, -6.128558], [106.652538, -6.127237]]]}, "properties": {"nama": "Soetta Line", "line": "A", "panjang_km": 57.12, "sumber": "Jalur KRL, data Pak Fabian (LapakGIS)"}}, {"type": "Feature", "geometry": {"type": "MultiLineString", "coordinates": [[[106.818948, -6.136349], [106.820163, -6.135823], [106.820464, -6.135621], [106.82065, -6.135477], [106.821007, -6.135102], [106.821364, -6.134651], [106.821664, -6.134263], [106.821849, -6.134047], [106.822154, -6.133725], [106.822535, -6.133394], [106.822941, -6.133134], [106.823308, -6.132927], [106.823609, -6.132792], [106.823991, -6.132666], [106.825429, -6.132217]]]}, "properties": {"nama": "Jalur penghubung", "line": null, "panjang_km": 0.87, "sumber": "Jalur KRL, data Pak Fabian (LapakGIS)"}}]}