{
"type": "FeatureCollection",
"name": "railway_station_DKI",
"crs": { "type": "name", "properties": { "name": "urn:ogc:def:crs:OGC:1.3:CRS84" } },
"features": [
{"type":"Feature","properties":{"full_id":"n318840303","osm_id":"318840303","osm_type":"node","railway":"station","ref":null,"website":null,"amenity":null,"network:short":null,"name:es":null,"line_served":null,"abbr_name":null,"addr:subdistrict":null,"addr:province":null,"addr:district":null,"alt_name:zh":null,"access:roof":null,"start_date":null,"internet_access":null,"description":null,"light_rail":null,"platforms":null,"wikimedia_commons":null,"wheelchair":null,"name:ja":null,"name:zh-Hant":null,"name:zh-Hans":null,"name:zh":null,"subway":null,"station":null,"wikipedia:en":null,"name:id":null,"name:en":null,"addr:full":null,"wikipedia":"id:Stasiun Duren Kalibata","wikidata":"Q13405394","train":"yes","railway:ref":"DRN","public_transport":"station","operator:wikidata":"Q2745027","operator:website":"https://www.kai.id","operator":"PT Kereta Api Indonesia","old_name":"Halte Tjililitan","network:wikidata":"Q12501611","network":"KAI Commuter","name:th":"ดูเร็นกาลีบาตา","name":"Duren Kalibata","ele":"26","alt_name":"Stasiun Duren Kalibata","addr:street":"Jalan Pengadegan","addr:postcode":"12770","addr:country":"ID","addr:city":"DKI Jakarta"},"geometry":{"type":"Point","coordinates":[106.8551672,-6.2552012]}},
{"type":"Feature","properties":{"full_id":"n2334098791","osm_id":"2334098791","osm_type":"node","railway":"station","ref":null,"website":null,"amenity":null,"network:short":null,"name:es":null,"line_served":null,"abbr_name":null,"addr:subdistrict":null,"addr:province":null,"addr:district":null,"alt_name:zh":null,"access:roof":null,"start_date":null,"internet_access":null,"description":null,"light_rail":null,"platforms":null,"wikimedia_commons":null,"wheelchair":null,"name:ja":null,"name:zh-Hant":null,"name:zh-Hans":null,"name:zh":null,"subway":null,"station":null,"wikipedia:en":null,"name:id":null,"name:en":null,"addr:full":null,"wikipedia":"id:Stasiun Cawang","wikidata":"Q2199335","train":"yes","railway:ref":"CW","public_transport":"station","operator:wikidata":"Q2745027","operator:website":"https://www.kai.id","operator":"PT Kereta Api Indonesia","old_name":null,"network:wikidata":"Q12501611","network":"KAI Commuter","name:th":"จาวัง","name":"Cawang","ele":"13","alt_name":"Stasiun Cawang","addr:street":null,"addr:postcode":null,"addr:country":"ID","addr:city":"DKI Jakarta"},"geometry":{"type":"Point","coordinates":[106.8586903,-6.2425517]}},
{"type":"Feature","properties":{"full_id":"n3056674105","osm_id":"3056674105","osm_type":"node","railway":"station","ref":null,"website":null,"amenity":null,"network:short":null,"name:es":null,"line_served":null,"abbr_name":null,"addr:subdistrict":null,"addr:province":null,"addr:district":null,"alt_name:zh":null,"access:roof":null,"start_date":null,"internet_access":null,"description":null,"light_rail":null,"platforms":null,"wikimedia_commons":null,"wheelchair":null,"name:ja":null,"name:zh-Hant":null,"name:zh-Hans":null,"name:zh":null,"subway":null,"station":null,"wikipedia:en":null,"name:id":null,"name:en":null,"addr:full":null,"wikipedia":"id:Stasiun Tebet","wikidata":"Q2501705","train":"yes","railway:ref":"TEB","public_transport":"station","operator:wikidata":"Q2745027","operator:website":"https://www.kai.id","operator":"PT Kereta Api Indonesia","old_name":null,"network:wikidata":"Q12501611","network":"KAI Commuter","name:th":"เตอเบิต","name":"Tebet","ele":"17","alt_name":"Stasiun Tebet","addr:street":null,"addr:postcode":null,"addr:country":"ID","addr:city":"DKI Jakarta"},"geometry":{"type":"Point","coordinates":[106.8584389,-6.2263977]}},
{"type":"Feature","properties":{"full_id":"n3865048155","osm_id":"3865048155","osm_type":"node","railway":"station","ref":null,"website":null,"amenity":null,"network:short":null,"name:es":null,"line_served":null,"abbr_name":null,"addr:subdistrict":null,"addr:province":null,"addr:district":null,"alt_name:zh":null,"access:roof":null,"start_date":null,"internet_access":null,"description":null,"light_rail":null,"platforms":null,"wikimedia_commons":null,"wheelchair":null,"name:ja":null,"name:zh-Hant":null,"name:zh-Hans":null,"name:zh":null,"subway":null,"station":null,"wikipedia:en":null,"name:id":"Buaran","name:en":"Buaran","addr:full":"Jalan I Gusti Ngurah Rai","wikipedia":"id:Stasiun Buaran","wikidata":"Q2188800","train":"yes","railway:ref":"BUA","public_transport":"station","operator:wikidata":"Q2745027","operator:website":"https://www.kai.id","operator":"PT Kereta Api Indonesia","old_name":null,"network:wikidata":"Q12501611","network":"KAI Commuter","name:th":null,"name":"Buaran","ele":"11","alt_name":"Stasiun Buaran","addr:street":null,"addr:postcode":"13940","addr:country":null,"addr:city":"DKI Jakarta"},"geometry":{"type":"Point","coordinates":[106.92316,-6.2156064]}},
{"type":"Feature","properties":{"full_id":"n4149249345","osm_id":"4149249345","osm_type":"node","railway":"station","ref":null,"website":null,"amenity":null,"network:short":null,"name:es":null,"line_served":null,"abbr_name":null,"addr:subdistrict":null,"addr:province":null,"addr:district":null,"alt_name:zh":null,"access:roof":null,"start_date":null,"internet_access":null,"description":null,"light_rail":null,"platforms":null,"wikimedia_commons":null,"wheelchair":null,"name:ja":null,"name:zh-Hant":null,"name:zh-Hans":null,"name:zh":null,"subway":null,"station":null,"wikipedia:en":null,"name:id":"Kramat","name:en":"Kramat","addr:full":"Jalan Pramuka Jati","wikipedia":"id:Stasiun Kramat","wikidata":"Q1848009","train":"yes","railway:ref":"KMT","public_transport":"station","operator:wikidata":"Q2745027","operator:website":"https://www.kai.id","operator":"PT Kereta Api Indonesia","old_name":null,"network:wikidata":"Q12501611","network":"KAI Commuter","name:th":"กรามัต","name":"Kramat","ele":"10","alt_name":"Stasiun Kramat","addr:street":null,"addr:postcode":"10450","addr:country":null,"addr:city":"DKI Jakarta"},"geometry":{"type":"Point","coordinates":[106.8565119,-6.1936203]}},
{"type":"Feature","properties":{"full_id":"n4149368915","osm_id":"4149368915","osm_type":"node","railway":"station","ref":null,"website":null,"amenity":null,"network:short":null,"name:es":null,"line_served":null,"abbr_name":null,"addr:subdistrict":null,"addr:province":null,"addr:district":null,"alt_name:zh":null,"access:roof":null,"start_date":null,"internet_access":null,"description":null,"light_rail":null,"platforms":null,"wikimedia_commons":null,"wheelchair":null,"name:ja":null,"name:zh-Hant":null,"name:zh-Hans":null,"name:zh":null,"subway":null,"station":null,"wikipedia:en":"Pesing railway station","name:id":null,"name:en":null,"addr:full":"Jalan Daan Mogot Raya 2","wikipedia":null,"wikidata":"Q27963600","train":"yes","railway:ref":"PSG","public_transport":"station","operator:wikidata":null,"operator:website":null,"operator":"PT Kereta Api Indonesia","old_name":null,"network:wikidata":"Q12501611","network":"KAI Commuter","name:th":"เปอซิง","name":"Pesing","ele":null,"alt_name":"Stasiun Pesing","addr:street":null,"addr:postcode":"11460","addr:country":null,"addr:city":"DKI Jakarta"},"geometry":{"type":"Point","coordinates":[106.7719077,-6.1612525]}},
{"type":"Feature","properties":{"full_id":"n4695686975","osm_id":"4695686975","osm_type":"node","railway":"station","ref":null,"website":null,"amenity":null,"network:short":null,"name:es":null,"line_served":null,"abbr_name":null,"addr:subdistrict":null,"addr:province":null,"addr:district":null,"alt_name:zh":null,"access:roof":null,"start_date":null,"internet_access":null,"description":null,"light_rail":null,"platforms":null,"wikimedia_commons":null,"wheelchair":null,"name:ja":null,"name:zh-Hant":null,"name:zh-Hans":null,"name:zh":null,"subway":"yes","station":"subway","wikipedia:en":null,"name:id":null,"name:en":null,"addr:full":null,"wikipedia":"id:Stasiun MRT ASEAN","wikidata":"Q61365133","train":null,"railway:ref":"SSM","public_transport":"station","operator:wikidata":null,"operator:website":null,"operator":"MRT Jakarta","old_name":null,"network:wikidata":null,"network":"MRT Jakarta","name:th":"สำนักงานเลขาธิการอาเซียน","name":"ASEAN Headquarters","ele":null,"alt_name":"Stasiun ASEAN","addr:street":null,"addr:postcode":null,"addr:country":null,"addr:city":null},"geometry":{"type":"Point","coordinates":[106.7984457,-6.2387737]}},
{"type":"Feature","properties":{"full_id":"n4797813240","osm_id":"4797813240","osm_type":"node","railway":"station","ref":null,"website":null,"amenity":null,"network:short":null,"name:es":null,"line_served":null,"abbr_name":null,"addr:subdistrict":null,"addr:province":null,"addr:district":null,"alt_name:zh":null,"access:roof":null,"start_date":null,"internet_access":null,"description":null,"light_rail":null,"platforms":null,"wikimedia_commons":null,"wheelchair":null,"name:ja":null,"name:zh-Hant":"干冬墟","name:zh-Hans":"干冬墟","name:zh":"干冬墟","subway":null,"station":null,"wikipedia:en":null,"name:id":"Jatinegara","name:en":"Jatinegara","addr:full":"Jalan Bekasi Timur Raya","wikipedia":"id:Stasiun Jatinegara","wikidata":"Q2501476","train":"yes","railway:ref":"JNG","public_transport":"station","operator:wikidata":"Q2745027","operator:website":"https://www.kai.id","operator":"PT Kereta Api Indonesia","old_name":"Stasiun Meester Cornelis;Meester Cornelis","network:wikidata":"Q2745027","network":"KAI","name:th":"จาตีเนอการา","name":"Jatinegara","ele":"16","alt_name":"Stasiun Jatinegara","addr:street":"Jl. Bekasi Barat Raya, RT.13/RW.16, Pisangan Baru, Matraman","addr:postcode":"13110","addr:country":null,"addr:city":"DKI Jakarta"},"geometry":{"type":"Point","coordinates":[106.8703394,-6.2149252]}},
{"type":"Feature","properties":{"full_id":"n4798377262","osm_id":"4798377262","osm_type":"node","railway":"station","ref":null,"website":null,"amenity":null,"network:short":null,"name:es":null,"line_served":null,"abbr_name":null,"addr:subdistrict":null,"addr:province":null,"addr:district":null,"alt_name:zh":null,"access:roof":null,"start_date":null,"internet_access":null,"description":null,"light_rail":null,"platforms":null,"wikimedia_commons":null,"wheelchair":null,"name:ja":"ゴンダンディア","name:zh-Hant":null,"name:zh-Hans":null,"name:zh":null,"subway":null,"station":null,"wikipedia:en":null,"name:id":null,"name:en":null,"addr:full":"Jalan Srikaya I","wikipedia":"id:Stasiun Gondangdia","wikidata":"Q2120758","train":"yes","railway:ref":"GDD","public_transport":"station","operator:wikidata":"Q2745027","operator:website":"https://www.kai.id","operator":"PT Kereta Api Indonesia","old_name":null,"network:wikidata":"Q12501611","network":"KAI Commuter","name:th":"กนดังดียา","name":"Gondangdia","ele":"17","alt_name":"Stasiun Gondangdia","addr:street":null,"addr:postcode":null,"addr:country":null,"addr:city":"DKI Jakarta"},"geometry":{"type":"Point","coordinates":[106.8325657,-6.1859109]}},
{"type":"Feature","properties":{"full_id":"n4800675082","osm_id":"4800675082","osm_type":"node","railway":"station","ref":null,"website":null,"amenity":null,"network:short":null,"name:es":null,"line_served":null,"abbr_name":null,"addr:subdistrict":null,"addr:province":null,"addr:district":null,"alt_name:zh":null,"access:roof":null,"start_date":null,"internet_access":null,"description":null,"light_rail":null,"platforms":null,"wikimedia_commons":null,"wheelchair":null,"name:ja":null,"name:zh-Hant":null,"name:zh-Hans":null,"name:zh":null,"subway":null,"station":null,"wikipedia:en":null,"name:id":"Pondok Jati","name:en":"Pondok Jati","addr:full":"Jalan Stasiun Pondok Jati","wikipedia":"id:Stasiun Pondok Jati","wikidata":"Q2530793","train":"yes","railway:ref":"POK","public_transport":"station","operator:wikidata":"Q2745027","operator:website":"https://www.kai.id","operator":"PT Kereta Api Indonesia","old_name":"Halte Gang Solitude","network:wikidata":"Q12501611","network":"KAI Commuter","name:th":"ปนดกจาตี","name":"Pondok Jati","ele":"14","alt_name":"Stasiun Pondok Jati","addr:street":null,"addr:postcode":null,"addr:country":null,"addr:city":"DKI Jakarta"},"geometry":{"type":"Point","coordinates":[106.8623419,-6.2091242]}},
{"type":"Feature","properties":{"full_id":"n4815286700","osm_id":"4815286700","osm_type":"node","railway":"station","ref":null,"website":null,"amenity":null,"network:short":null,"name:es":null,"line_served":null,"abbr_name":null,"addr:subdistrict":null,"addr:province":null,"addr:district":null,"alt_name:zh":null,"access:roof":null,"start_date":null,"internet_access":null,"description":null,"light_rail":null,"platforms":null,"wikimedia_commons":null,"wheelchair":"limited","name:ja":null,"name:zh-Hant":null,"name:zh-Hans":null,"name:zh":null,"subway":null,"station":null,"wikipedia:en":null,"name:id":null,"name:en":null,"addr:full":"Jalan Manggarai Utara I","wikipedia":"id:Stasiun Manggarai","wikidata":"Q2546915","train":"yes","railway:ref":"MRI","public_transport":"station","operator:wikidata":"Q2745027","operator:website":null,"operator":"PT Kereta Api Indonesia","old_name":null,"network:wikidata":"Q12501611","network":"KAI Commuter","name:th":"มังกาไร","name":"Manggarai","ele":null,"alt_name":"Stasiun Manggarai","addr:street":null,"addr:postcode":null,"addr:country":null,"addr:city":"DKI Jakarta"},"geometry":{"type":"Point","coordinates":[106.849935,-6.2101704]}},
{"type":"Feature","properties":{"full_id":"n4817686767","osm_id":"4817686767","osm_type":"node","railway":"station","ref":null,"website":null,"amenity":null,"network:short":null,"name:es":null,"line_served":null,"abbr_name":null,"addr:subdistrict":null,"addr:province":null,"addr:district":null,"alt_name:zh":null,"access:roof":null,"start_date":null,"internet_access":null,"description":null,"light_rail":null,"platforms":null,"wikimedia_commons":null,"wheelchair":null,"name:ja":null,"name:zh-Hant":null,"name:zh-Hans":null,"name:zh":null,"subway":null,"station":null,"wikipedia:en":null,"name:id":null,"name:en":null,"addr:full":"Jalan Pegangsaan Barat","wikipedia":"id:Stasiun Cikini","wikidata":"Q2609428","train":"yes","railway:ref":"CKI","public_transport":"station","operator:wikidata":"Q2745027","operator:website":"https://www.kai.id","operator":"PT Kereta Api Indonesia","old_name":null,"network:wikidata":"Q12501611","network":"KAI Commuter","name:th":"จีกีนี","name":"Cikini","ele":"20","alt_name":"Stasiun Cikini","addr:street":null,"addr:postcode":null,"addr:country":null,"addr:city":"DKI Jakarta"},"geometry":{"type":"Point","coordinates":[106.8412799,-6.1985052]}},
{"type":"Feature","properties":{"full_id":"n4836555990","osm_id":"4836555990","osm_type":"node","railway":"station","ref":null,"website":null,"amenity":null,"network:short":null,"name:es":null,"line_served":null,"abbr_name":null,"addr:subdistrict":null,"addr:province":null,"addr:district":null,"alt_name:zh":null,"access:roof":null,"start_date":null,"internet_access":null,"description":null,"light_rail":null,"platforms":null,"wikimedia_commons":"File:Lantai Dua Stasiun Tanah Abang.jpg","wheelchair":null,"name:ja":null,"name:zh-Hant":"丹那望","name:zh-Hans":"丹那望","name:zh":"丹那望","subway":null,"station":null,"wikipedia:en":null,"name:id":null,"name:en":null,"addr:full":"Jalan Jatibaru","wikipedia":"id:Stasiun Tanah Abang","wikidata":"Q2348424","train":"yes","railway:ref":"THB","public_transport":"station","operator:wikidata":null,"operator:website":null,"operator":"PT Kereta Api Indonesia","old_name":null,"network:wikidata":"Q12501611","network":"KAI Commuter","name:th":"ตานะฮ์อาบัง","name":"Tanah Abang","ele":null,"alt_name":"Stasiun Tanah Abang","addr:street":"Jalan Jatibaru Raya","addr:postcode":null,"addr:country":null,"addr:city":"DKI Jakarta"},"geometry":{"type":"Point","coordinates":[106.8108938,-6.1857127]}},
{"type":"Feature","properties":{"full_id":"n4849162195","osm_id":"4849162195","osm_type":"node","railway":"station","ref":null,"website":null,"amenity":null,"network:short":null,"name:es":null,"line_served":null,"abbr_name":null,"addr:subdistrict":null,"addr:province":null,"addr:district":null,"alt_name:zh":null,"access:roof":null,"start_date":null,"internet_access":null,"description":null,"light_rail":null,"platforms":null,"wikimedia_commons":null,"wheelchair":null,"name:ja":null,"name:zh-Hant":"老巴剎","name:zh-Hans":null,"name:zh":null,"subway":null,"station":null,"wikipedia:en":null,"name:id":"Pasar Senen","name:en":"Pasar Senen","addr:full":null,"wikipedia":"id:Stasiun Pasar Senen","wikidata":"Q587293","train":"yes","railway:ref":"PSE","public_transport":"station","operator:wikidata":"Q2745027","operator:website":"https://www.kai.id","operator":"PT Kereta Api Indonesia","old_name":null,"network:wikidata":"Q2745027","network":"KAI","name:th":"ปาซาร์เซอเน็น","name":"Pasar Senen","ele":"4.7","alt_name":"Stasiun Pasar Senen;Stasiun Jakarta Pasar Senen;Stasiun Senen;Jakarta Pasar Senen;Senen","addr:street":null,"addr:postcode":null,"addr:country":null,"addr:city":"DKI Jakarta"},"geometry":{"type":"Point","coordinates":[106.8445744,-6.1744233]}},
{"type":"Feature","properties":{"full_id":"n4849205568","osm_id":"4849205568","osm_type":"node","railway":"station","ref":null,"website":null,"amenity":null,"network:short":null,"name:es":null,"line_served":null,"abbr_name":null,"addr:subdistrict":null,"addr:province":null,"addr:district":null,"alt_name:zh":null,"access:roof":null,"start_date":null,"internet_access":null,"description":null,"light_rail":null,"platforms":null,"wikimedia_commons":null,"wheelchair":null,"name:ja":null,"name:zh-Hant":"加烈","name:zh-Hans":"加烈","name:zh":"加烈","subway":null,"station":null,"wikipedia:en":null,"name:id":null,"name:en":null,"addr:full":"Jalan KH Mas Mansyur","wikipedia":"id:Stasiun Karet","wikidata":"Q12516278","train":"yes","railway:ref":"KAT","public_transport":"station","operator:wikidata":null,"operator:website":null,"operator":"PT Kereta Api Indonesia","old_name":null,"network:wikidata":"Q12501611","network":"KAI Commuter","name:th":"กาเร็ต","name":"Karet","ele":null,"alt_name":null,"addr:street":null,"addr:postcode":null,"addr:country":null,"addr:city":"DKI Jakarta"},"geometry":{"type":"Point","coordinates":[106.8167704,-6.2009538]}},
{"type":"Feature","properties":{"full_id":"n4877432803","osm_id":"4877432803","osm_type":"node","railway":"station","ref":null,"website":null,"amenity":null,"network:short":null,"name:es":null,"line_served":null,"abbr_name":null,"addr:subdistrict":null,"addr:province":null,"addr:district":null,"alt_name:zh":null,"access:roof":null,"start_date":null,"internet_access":null,"description":null,"light_rail":null,"platforms":null,"wikimedia_commons":null,"wheelchair":null,"name:ja":null,"name:zh-Hant":"紅牌","name:zh-Hans":null,"name:zh":null,"subway":null,"station":null,"wikipedia:en":null,"name:id":null,"name:en":null,"addr:full":"Jalan Tentara Pelajar","wikipedia":"id:Stasiun Palmerah","wikidata":"Q12516311","train":"yes","railway:ref":"PLM","public_transport":"station","operator:wikidata":null,"operator:website":null,"operator":"PT Kereta Api Indonesia","old_name":null,"network:wikidata":"Q12501611","network":"KAI Commuter","name:th":null,"name":"Palmerah","ele":null,"alt_name":"Stasiun Palmerah","addr:street":null,"addr:postcode":null,"addr:country":null,"addr:city":"DKI Jakarta"},"geometry":{"type":"Point","coordinates":[106.7972321,-6.2079197]}},
{"type":"Feature","properties":{"full_id":"n4881688223","osm_id":"4881688223","osm_type":"node","railway":"station","ref":null,"website":null,"amenity":null,"network:short":null,"name:es":null,"line_served":null,"abbr_name":null,"addr:subdistrict":null,"addr:province":null,"addr:district":null,"alt_name:zh":null,"access:roof":null,"start_date":null,"internet_access":null,"description":null,"light_rail":null,"platforms":"2","wikimedia_commons":null,"wheelchair":null,"name:ja":null,"name:zh-Hant":null,"name:zh-Hans":null,"name:zh":null,"subway":null,"station":null,"wikipedia:en":null,"name:id":null,"name:en":null,"addr:full":"Jalan Raya Rawajati Timur RT.8/RW.2","wikipedia":"id:Stasiun Pasar Minggu Baru","wikidata":"Q12516315","train":"yes","railway:ref":"PSMB","public_transport":"station","operator:wikidata":"Q2745027","operator:website":"https://www.kai.id","operator":"PT Kereta Api Indonesia","old_name":null,"network:wikidata":"Q12501611","network":"KAI Commuter","name:th":"ปาซาร์มิงกูบารู","name":"Pasar Minggu Baru","ele":"37","alt_name":null,"addr:street":null,"addr:postcode":"12510","addr:country":"ID","addr:city":"DKI Jakarta"},"geometry":{"type":"Point","coordinates":[106.8517957,-6.262798]}},
{"type":"Feature","properties":{"full_id":"n4883105492","osm_id":"4883105492","osm_type":"node","railway":"station","ref":null,"website":null,"amenity":null,"network:short":null,"name:es":null,"line_served":null,"abbr_name":null,"addr:subdistrict":null,"addr:province":null,"addr:district":null,"alt_name:zh":null,"access:roof":null,"start_date":null,"internet_access":null,"description":null,"light_rail":null,"platforms":null,"wikimedia_commons":null,"wheelchair":null,"name:ja":"ジュアンダ","name:zh-Hant":null,"name:zh-Hans":null,"name:zh":null,"subway":null,"station":null,"wikipedia:en":null,"name:id":null,"name:en":null,"addr:full":"Jalan Ir H Juanda I","wikipedia":"id:Stasiun Juanda","wikidata":"Q2296734","train":"yes","railway:ref":"JUA","public_transport":"station","operator:wikidata":"Q2745027","operator:website":"https://www.kai.id","operator":"PT Kereta Api Indonesia","old_name":null,"network:wikidata":"Q12501611","network":"KAI Commuter","name:th":"จูวันดา","name":"Juanda","ele":"15","alt_name":"Stasiun Juanda","addr:street":null,"addr:postcode":null,"addr:country":null,"addr:city":"DKI Jakarta"},"geometry":{"type":"Point","coordinates":[106.8304609,-6.1666746]}},
{"type":"Feature","properties":{"full_id":"n4891132084","osm_id":"4891132084","osm_type":"node","railway":"station","ref":null,"website":null,"amenity":null,"network:short":null,"name:es":null,"line_served":null,"abbr_name":null,"addr:subdistrict":null,"addr:province":null,"addr:district":null,"alt_name:zh":null,"access:roof":null,"start_date":null,"internet_access":null,"description":null,"light_rail":null,"platforms":null,"wikimedia_commons":null,"wheelchair":null,"name:ja":"ガンビール","name:zh-Hant":"甘密埔","name:zh-Hans":null,"name:zh":null,"subway":null,"station":null,"wikipedia:en":null,"name:id":null,"name:en":null,"addr:full":"Jalan Merdeka Timur","wikipedia":"id:Stasiun Gambir","wikidata":"Q1889128","train":"yes","railway:ref":"GMR","public_transport":"station","operator:wikidata":"Q2745027","operator:website":"https://www.kai.id","operator":"PT Kereta Api Indonesia","old_name":null,"network:wikidata":"Q2745027","network":"KAI","name:th":"กัมบีร์","name":"Gambir","ele":"16","alt_name":"Stasiun Gambir","addr:street":null,"addr:postcode":null,"addr:country":null,"addr:city":"DKI Jakarta"},"geometry":{"type":"Point","coordinates":[106.8306473,-6.1766553]}},
{"type":"Feature","properties":{"full_id":"n4899822033","osm_id":"4899822033","osm_type":"node","railway":"station","ref":null,"website":null,"amenity":null,"network:short":null,"name:es":null,"line_served":null,"abbr_name":null,"addr:subdistrict":null,"addr:province":null,"addr:district":null,"alt_name:zh":null,"access:roof":null,"start_date":null,"internet_access":null,"description":null,"light_rail":null,"platforms":null,"wikimedia_commons":null,"wheelchair":null,"name:ja":null,"name:zh-Hant":null,"name:zh-Hans":null,"name:zh":null,"subway":null,"station":null,"wikipedia:en":null,"name:id":"Kemayoran","name:en":"Kemayoran","addr:full":"Jalan Garuda Raya","wikipedia":"id:Stasiun Kemayoran","wikidata":"Q2403054","train":"yes","railway:ref":"KMO","public_transport":"station","operator:wikidata":"Q2745027","operator:website":"https://www.kai.id","operator":"PT Kereta Api Indonesia","old_name":null,"network:wikidata":"Q12501611","network":"KAI Commuter","name:th":"เกอมาโยรัน","name":"Kemayoran","ele":"4","alt_name":"Stasiun Kemayoran","addr:street":"Jalan Garuda, Kemayoran","addr:postcode":"10620","addr:country":null,"addr:city":"DKI Jakarta"},"geometry":{"type":"Point","coordinates":[106.8414012,-6.1617033]}},
{"type":"Feature","properties":{"full_id":"n4900932061","osm_id":"4900932061","osm_type":"node","railway":"station","ref":null,"website":null,"amenity":null,"network:short":null,"name:es":null,"line_served":null,"abbr_name":null,"addr:subdistrict":null,"addr:province":null,"addr:district":null,"alt_name:zh":null,"access:roof":null,"start_date":null,"internet_access":null,"description":null,"light_rail":null,"platforms":null,"wikimedia_commons":null,"wheelchair":null,"name:ja":null,"name:zh-Hant":null,"name:zh-Hans":null,"name:zh":null,"subway":null,"station":null,"wikipedia:en":null,"name:id":"Klender","name:en":"Klender","addr:full":"Jalan Bekasi Timur","wikipedia":"id:Stasiun Klender","wikidata":"Q2678851","train":"yes","railway:ref":"KLD","public_transport":"station","operator:wikidata":"Q2745027","operator:website":"https://www.kai.id","operator":"PT Kereta Api Indonesia","old_name":null,"network:wikidata":"Q12501611","network":"KAI Commuter","name:th":null,"name":"Klender","ele":"10","alt_name":"Stasiun Klender","addr:street":null,"addr:postcode":null,"addr:country":null,"addr:city":"DKI Jakarta"},"geometry":{"type":"Point","coordinates":[106.8994133,-6.2133188]}},
{"type":"Feature","properties":{"full_id":"n4901690569","osm_id":"4901690569","osm_type":"node","railway":"station","ref":null,"website":null,"amenity":null,"network:short":null,"name:es":null,"line_served":null,"abbr_name":null,"addr:subdistrict":null,"addr:province":null,"addr:district":null,"alt_name:zh":null,"access:roof":null,"start_date":null,"internet_access":null,"description":null,"light_rail":null,"platforms":null,"wikimedia_commons":null,"wheelchair":null,"name:ja":null,"name:zh-Hant":null,"name:zh-Hans":null,"name:zh":null,"subway":null,"station":null,"wikipedia:en":null,"name:id":"Klender Baru","name:en":"Klender Baru","addr:full":"Jalan Penggilingan","wikipedia":"id:Stasiun Klender Baru","wikidata":"Q2786964","train":"yes","railway:ref":"KLDB","public_transport":"station","operator:wikidata":"Q2745027","operator:website":"https://www.kai.id","operator":"PT Kereta Api Indonesia","old_name":null,"network:wikidata":"Q12501611","network":"KAI Commuter","name:th":null,"name":"Klender Baru","ele":"11","alt_name":"Stasiun Klender Baru;Stasiun Pondok Kopi;Pondok Kopi","addr:street":null,"addr:postcode":null,"addr:country":null,"addr:city":"DKI Jakarta"},"geometry":{"type":"Point","coordinates":[106.9401833,-6.2176591]}},
{"type":"Feature","properties":{"full_id":"n4905517383","osm_id":"4905517383","osm_type":"node","railway":"station","ref":null,"website":null,"amenity":null,"network:short":null,"name:es":null,"line_served":null,"abbr_name":null,"addr:subdistrict":null,"addr:province":null,"addr:district":null,"alt_name:zh":null,"access:roof":null,"start_date":null,"internet_access":null,"description":null,"light_rail":null,"platforms":null,"wikimedia_commons":null,"wheelchair":null,"name:ja":null,"name:zh-Hant":null,"name:zh-Hans":null,"name:zh":null,"subway":null,"station":null,"wikipedia:en":null,"name:id":null,"name:en":null,"addr:full":"Jalan Semanan Raya","wikipedia":"id:Stasiun Kalideres","wikidata":"Q19748473","train":"yes","railway:ref":"KDS","public_transport":"station","operator:wikidata":null,"operator:website":null,"operator":"PT Kereta Api Indonesia","old_name":null,"network:wikidata":"Q12501611","network":"KAI Commuter","name:th":"กาลีเดอเริซ","name":"Kalideres","ele":null,"alt_name":"Stasiun Kalideres","addr:street":null,"addr:postcode":"11810","addr:country":null,"addr:city":"DKI Jakarta"},"geometry":{"type":"Point","coordinates":[106.7037283,-6.1659662]}},
{"type":"Feature","properties":{"full_id":"n4907843137","osm_id":"4907843137","osm_type":"node","railway":"station","ref":null,"website":null,"amenity":null,"network:short":null,"name:es":null,"line_served":null,"abbr_name":null,"addr:subdistrict":null,"addr:province":null,"addr:district":null,"alt_name:zh":null,"access:roof":null,"start_date":null,"internet_access":null,"description":null,"light_rail":"yes","platforms":null,"wikimedia_commons":null,"wheelchair":null,"name:ja":null,"name:zh-Hant":null,"name:zh-Hans":null,"name:zh":null,"subway":null,"station":"light_rail","wikipedia:en":null,"name:id":null,"name:en":null,"addr:full":null,"wikipedia":"id:Stasiun LRT TMII","wikidata":"Q19726721","train":null,"railway:ref":null,"public_transport":"station","operator:wikidata":null,"operator:website":null,"operator":"PT Kereta Api Indonesia (Persero), Divisi LRT Jabodebek","old_name":null,"network:wikidata":null,"network":"LRT Jabodebek","name:th":null,"name":"Taman Mini","ele":null,"alt_name":null,"addr:street":"Jalan Taman Mini I","addr:postcode":"13650","addr:country":null,"addr:city":"Jakarta"},"geometry":{"type":"Point","coordinates":[106.8805584,-6.2929088]}},
{"type":"Feature","properties":{"full_id":"n4908440160","osm_id":"4908440160","osm_type":"node","railway":"station","ref":null,"website":null,"amenity":null,"network:short":null,"name:es":null,"line_served":null,"abbr_name":null,"addr:subdistrict":null,"addr:province":null,"addr:district":null,"alt_name:zh":null,"access:roof":null,"start_date":null,"internet_access":"yes","description":"Stasiun untuk KA Bandara dan KRL","light_rail":null,"platforms":null,"wikimedia_commons":null,"wheelchair":null,"name:ja":null,"name:zh-Hant":null,"name:zh-Hans":null,"name:zh":null,"subway":null,"station":null,"wikipedia:en":null,"name:id":null,"name:en":null,"addr:full":null,"wikipedia":"id:Stasiun BNI City","wikidata":"Q28725676","train":"yes","railway:ref":"SUDB","public_transport":"station","operator:wikidata":null,"operator:website":null,"operator":"PT Kereta Api Indonesia","old_name":null,"network:wikidata":"Q12501611","network":"KAI Commuter","name:th":null,"name":"BNI City","ele":null,"alt_name":"Sudirman Baru","addr:street":"Jalan Talang Betutu","addr:postcode":null,"addr:country":null,"addr:city":"Central Jakarta"},"geometry":{"type":"Point","coordinates":[106.8197174,-6.2015938]}},
{"type":"Feature","properties":{"full_id":"n4910182667","osm_id":"4910182667","osm_type":"node","railway":"station","ref":null,"website":null,"amenity":null,"network:short":null,"name:es":null,"line_served":null,"abbr_name":null,"addr:subdistrict":null,"addr:province":null,"addr:district":null,"alt_name:zh":null,"access:roof":null,"start_date":null,"internet_access":null,"description":null,"light_rail":null,"platforms":null,"wikimedia_commons":null,"wheelchair":null,"name:ja":null,"name:zh-Hant":null,"name:zh-Hans":null,"name:zh":null,"subway":null,"station":null,"wikipedia:en":null,"name:id":null,"name:en":null,"addr:full":"Jalan Lenteng Agung","wikipedia":"id:Stasiun Universitas Pancasila","wikidata":"Q12516361","train":"yes","railway:ref":"UP","public_transport":"station","operator:wikidata":"Q2745027","operator:website":"https://www.kai.id","operator":"PT Kereta Api Indonesia","old_name":null,"network:wikidata":"Q12501611","network":"KAI Commuter","name:th":"มหาวิทยาลัยปันจาซีลา","name":"Universitas Pancasila","ele":"57","alt_name":"Stasiun Universitas Pancasila","addr:street":null,"addr:postcode":null,"addr:country":"ID","addr:city":"DKI Jakarta"},"geometry":{"type":"Point","coordinates":[106.834263,-6.3393452]}},
{"type":"Feature","properties":{"full_id":"n4921653106","osm_id":"4921653106","osm_type":"node","railway":"station","ref":null,"website":null,"amenity":null,"network:short":null,"name:es":null,"line_served":null,"abbr_name":null,"addr:subdistrict":null,"addr:province":null,"addr:district":null,"alt_name:zh":null,"access:roof":null,"start_date":"1869","internet_access":null,"description":null,"light_rail":null,"platforms":null,"wikimedia_commons":null,"wheelchair":null,"name:ja":null,"name:zh-Hant":null,"name:zh-Hans":null,"name:zh":null,"subway":null,"station":null,"wikipedia:en":null,"name:id":"Gang Sentiong","name:en":"Gang Sentiong","addr:full":null,"wikipedia":"id:Stasiun Gang Sentiong","wikidata":"Q3066462","train":"yes","railway:ref":"GST","public_transport":"station","operator:wikidata":"Q2745027","operator:website":"https://www.kai.id","operator":"PT Kereta Api Indonesia","old_name":null,"network:wikidata":"Q12501611","network":"KAI Commuter","name:th":"กังเซินตียง","name":"Gang Sentiong","ele":"7","alt_name":"Stasiun Gang Sentiong;Stasiun Sentiong;Sentiong","addr:street":"Jalan Kramat Pulo Dalam Buntu, Kramat, Senen","addr:postcode":"10450","addr:country":null,"addr:city":"DKI Jakarta"},"geometry":{"type":"Point","coordinates":[106.8508709,-6.1861531]}},
{"type":"Feature","properties":{"full_id":"n4923408354","osm_id":"4923408354","osm_type":"node","railway":"station","ref":null,"website":null,"amenity":null,"network:short":null,"name:es":null,"line_served":null,"abbr_name":null,"addr:subdistrict":null,"addr:province":null,"addr:district":null,"alt_name:zh":null,"access:roof":null,"start_date":null,"internet_access":null,"description":null,"light_rail":null,"platforms":null,"wikimedia_commons":null,"wheelchair":null,"name:ja":"サワブサール","name:zh-Hant":"新巴剎","name:zh-Hans":"新巴剎","name:zh":"新巴剎","subway":null,"station":null,"wikipedia:en":null,"name:id":null,"name:en":null,"addr:full":"Jalan Krekot Jaya I","wikipedia":"id:Stasiun Sawah Besar","wikidata":"Q1708991","train":"yes","railway:ref":"SW","public_transport":"station","operator:wikidata":"Q2745027","operator:website":"https://www.kai.id","operator":"PT Kereta Api Indonesia","old_name":null,"network:wikidata":"Q12501611","network":"KAI Commuter","name:th":"ซาวะฮ์เบอซาร์","name":"Sawah Besar","ele":"15","alt_name":"Stasiun Sawah Besar","addr:street":null,"addr:postcode":null,"addr:country":null,"addr:city":"DKI Jakarta"},"geometry":{"type":"Point","coordinates":[106.8276549,-6.1606672]}},
{"type":"Feature","properties":{"full_id":"n4925555833","osm_id":"4925555833","osm_type":"node","railway":"station","ref":null,"website":null,"amenity":null,"network:short":null,"name:es":null,"line_served":null,"abbr_name":null,"addr:subdistrict":null,"addr:province":null,"addr:district":null,"alt_name:zh":null,"access:roof":"no","start_date":null,"internet_access":null,"description":null,"light_rail":null,"platforms":null,"wikimedia_commons":null,"wheelchair":null,"name:ja":null,"name:zh-Hant":null,"name:zh-Hans":null,"name:zh":null,"subway":null,"station":null,"wikipedia:en":null,"name:id":null,"name:en":null,"addr:full":"Jalan Kendal","wikipedia":"id:Stasiun Sudirman","wikidata":"Q2502744","train":"yes","railway:ref":"SUD","public_transport":"station","operator:wikidata":null,"operator:website":null,"operator":"PT Kereta Api Indonesia","old_name":null,"network:wikidata":"Q12501611","network":"KAI Commuter","name:th":"ซูดีร์มัน","name":"Sudirman","ele":null,"alt_name":null,"addr:street":null,"addr:postcode":"10310","addr:country":null,"addr:city":"DKI Jakarta"},"geometry":{"type":"Point","coordinates":[106.8234493,-6.2024081]}},
{"type":"Feature","properties":{"full_id":"n4928014343","osm_id":"4928014343","osm_type":"node","railway":"station","ref":null,"website":null,"amenity":null,"network:short":null,"name:es":null,"line_served":null,"abbr_name":null,"addr:subdistrict":null,"addr:province":null,"addr:district":null,"alt_name:zh":null,"access:roof":null,"start_date":null,"internet_access":null,"description":null,"light_rail":null,"platforms":null,"wikimedia_commons":null,"wheelchair":null,"name:ja":null,"name:zh-Hant":null,"name:zh-Hans":null,"name:zh":null,"subway":null,"station":null,"wikipedia:en":null,"name:id":null,"name:en":null,"addr:full":"Jalan Lenteng Agung Raya","wikipedia":"id:Stasiun Tanjung Barat","wikidata":"Q2297298","train":"yes","railway:ref":"TNT","public_transport":"station","operator:wikidata":"Q2745027","operator:website":"https://www.kai.id","operator":"PT Kereta Api Indonesia","old_name":null,"network:wikidata":"Q12501611","network":"KAI Commuter","name:th":"ตันจุงบารัต","name":"Tanjung Barat","ele":"44","alt_name":"Stasiun Tanjung Barat","addr:street":null,"addr:postcode":null,"addr:country":"ID","addr:city":"DKI Jakarta"},"geometry":{"type":"Point","coordinates":[106.8389492,-6.3080407]}},
{"type":"Feature","properties":{"full_id":"n4961436159","osm_id":"4961436159","osm_type":"node","railway":"station","ref":null,"website":null,"amenity":null,"network:short":null,"name:es":null,"line_served":null,"abbr_name":null,"addr:subdistrict":null,"addr:province":null,"addr:district":null,"alt_name:zh":null,"access:roof":null,"start_date":null,"internet_access":null,"description":null,"light_rail":null,"platforms":null,"wikimedia_commons":null,"wheelchair":null,"name:ja":null,"name:zh-Hant":"紅溪","name:zh-Hans":"红溪","name:zh":"紅溪","subway":null,"station":null,"wikipedia:en":null,"name:id":null,"name:en":null,"addr:full":"Jalan Angke","wikipedia":"id:Stasiun Angke","wikidata":"Q2111725","train":"yes","railway:ref":"AK","public_transport":"station","operator:wikidata":"Q2745027","operator:website":"https://www.kai.id","operator":"PT Kereta Api Indonesia","old_name":null,"network:wikidata":"Q12501611","network":"KAI Commuter","name:th":"อังเก","name":"Angke","ele":null,"alt_name":"Stasiun Angke","addr:street":null,"addr:postcode":null,"addr:country":null,"addr:city":"DKI Jakarta"},"geometry":{"type":"Point","coordinates":[106.8007792,-6.1447372]}},
{"type":"Feature","properties":{"full_id":"n4963127710","osm_id":"4963127710","osm_type":"node","railway":"station","ref":null,"website":null,"amenity":null,"network:short":null,"name:es":null,"line_served":null,"abbr_name":null,"addr:subdistrict":null,"addr:province":null,"addr:district":null,"alt_name:zh":null,"access:roof":null,"start_date":null,"internet_access":null,"description":null,"light_rail":null,"platforms":null,"wikimedia_commons":null,"wheelchair":null,"name:ja":null,"name:zh-Hant":null,"name:zh-Hans":null,"name:zh":null,"subway":null,"station":null,"wikipedia:en":null,"name:id":"Rajawali","name:en":"Rajawali","addr:full":"Jalan Industri 1, RT.5/RW.2, Gunung Sahari Utara, Sawah Besar","wikipedia":"id:Stasiun Rajawali","wikidata":"Q1967015","train":"yes","railway:ref":"RJW","public_transport":"station","operator:wikidata":"Q2745027","operator:website":"https://www.kai.id","operator":"PT Kereta Api Indonesia","old_name":null,"network:wikidata":"Q12501611","network":"KAI Commuter","name:th":"ราจาวาลี","name":"Rajawali","ele":"5","alt_name":"Stasiun Rajawali","addr:street":null,"addr:postcode":"10720","addr:country":null,"addr:city":"DKI Jakarta"},"geometry":{"type":"Point","coordinates":[106.8368325,-6.1450996]}},
{"type":"Feature","properties":{"full_id":"n4963295116","osm_id":"4963295116","osm_type":"node","railway":"station","ref":null,"website":null,"amenity":null,"network:short":null,"name:es":null,"line_served":null,"abbr_name":null,"addr:subdistrict":null,"addr:province":null,"addr:district":null,"alt_name:zh":null,"access:roof":null,"start_date":null,"internet_access":null,"description":null,"light_rail":null,"platforms":null,"wikimedia_commons":null,"wheelchair":null,"name:ja":null,"name:zh-Hant":null,"name:zh-Hans":null,"name:zh":null,"subway":null,"station":null,"wikipedia:en":null,"name:id":null,"name:en":null,"addr:full":null,"wikipedia":"id:Stasiun Duri","wikidata":"Q12516253","train":"yes","railway:ref":"DU","public_transport":"station","operator:wikidata":"Q2745027","operator:website":"https://www.kai.id","operator":"PT Kereta Api Indonesia","old_name":null,"network:wikidata":"Q12501611","network":"KAI Commuter","name:th":"ดูรี","name":"Duri","ele":null,"alt_name":null,"addr:street":"Jalan Kali Anyer","addr:postcode":"11260","addr:country":null,"addr:city":"DKI Jakarta"},"geometry":{"type":"Point","coordinates":[106.8012968,-6.1552764]}},
{"type":"Feature","properties":{"full_id":"n4976561246","osm_id":"4976561246","osm_type":"node","railway":"station","ref":null,"website":null,"amenity":null,"network:short":null,"name:es":null,"line_served":null,"abbr_name":null,"addr:subdistrict":null,"addr:province":null,"addr:district":null,"alt_name:zh":null,"access:roof":null,"start_date":null,"internet_access":null,"description":null,"light_rail":null,"platforms":null,"wikimedia_commons":null,"wheelchair":null,"name:ja":"マンガブサール駅","name:zh-Hant":null,"name:zh-Hans":null,"name:zh":null,"subway":null,"station":null,"wikipedia:en":null,"name:id":null,"name:en":null,"addr:full":"Jalan Karang Anyar RT 013/RW 01","wikipedia":"id:Stasiun Mangga Besar","wikidata":"Q1444945","train":"yes","railway:ref":"MGB","public_transport":"station","operator:wikidata":"Q2745027","operator:website":"https://www.kai.id","operator":"PT Kereta Api Indonesia","old_name":null,"network:wikidata":"Q12501611","network":"KAI Commuter","name:th":"มังกาเบอซาร์","name":"Mangga Besar","ele":"14","alt_name":"Stasiun Mangga Besar","addr:street":null,"addr:postcode":"10740","addr:country":null,"addr:city":"DKI Jakarta"},"geometry":{"type":"Point","coordinates":[106.8269826,-6.1498037]}},
{"type":"Feature","properties":{"full_id":"n4976676188","osm_id":"4976676188","osm_type":"node","railway":"station","ref":null,"website":null,"amenity":null,"network:short":null,"name:es":null,"line_served":null,"abbr_name":null,"addr:subdistrict":null,"addr:province":null,"addr:district":null,"alt_name:zh":null,"access:roof":null,"start_date":null,"internet_access":null,"description":null,"light_rail":null,"platforms":null,"wikimedia_commons":null,"wheelchair":null,"name:ja":null,"name:zh-Hant":null,"name:zh-Hans":null,"name:zh":null,"subway":null,"station":null,"wikipedia:en":null,"name:id":null,"name:en":null,"addr:full":"Jalan Raya Pasar Minggu","wikipedia":"id:Stasiun Pasar Minggu","wikidata":"Q2085845","train":"yes","railway:ref":"PSM","public_transport":"station","operator:wikidata":"Q2745027","operator:website":"https://www.kai.id","operator":"PT Kereta Api Indonesia","old_name":null,"network:wikidata":"Q12501611","network":"KAI Commuter","name:th":"ปาซาร์มิงกู","name":"Pasar Minggu","ele":"36","alt_name":"Stasiun Pasar Minggu","addr:street":null,"addr:postcode":null,"addr:country":"ID","addr:city":"DKI Jakarta"},"geometry":{"type":"Point","coordinates":[106.8448558,-6.2833322]}},
{"type":"Feature","properties":{"full_id":"n4981870932","osm_id":"4981870932","osm_type":"node","railway":"station","ref":null,"website":null,"amenity":null,"network:short":null,"name:es":null,"line_served":null,"abbr_name":null,"addr:subdistrict":null,"addr:province":null,"addr:district":null,"alt_name:zh":null,"access:roof":null,"start_date":null,"internet_access":null,"description":null,"light_rail":null,"platforms":null,"wikimedia_commons":null,"wheelchair":null,"name:ja":"ジャヤカルタ","name:zh-Hant":null,"name:zh-Hans":null,"name:zh":null,"subway":null,"station":null,"wikipedia:en":null,"name:id":null,"name:en":null,"addr:full":null,"wikipedia":"id:Stasiun Jayakarta","wikidata":"Q1659026","train":"yes","railway:ref":"JAY","public_transport":"station","operator:wikidata":"Q2745027","operator:website":"https://www.kai.id","operator":"PT Kereta Api Indonesia","old_name":null,"network:wikidata":"Q12501611","network":"KAI Commuter","name:th":"จายาการ์ตา","name":"Jayakarta","ele":"13","alt_name":"Stasiun Jayakarta","addr:street":null,"addr:postcode":null,"addr:country":null,"addr:city":"DKI Jakarta"},"geometry":{"type":"Point","coordinates":[106.8231322,-6.1412999]}},
{"type":"Feature","properties":{"full_id":"n5019465652","osm_id":"5019465652","osm_type":"node","railway":"station","ref":null,"website":null,"amenity":null,"network:short":null,"name:es":null,"line_served":null,"abbr_name":null,"addr:subdistrict":null,"addr:province":null,"addr:district":null,"alt_name:zh":null,"access:roof":null,"start_date":null,"internet_access":null,"description":null,"light_rail":null,"platforms":null,"wikimedia_commons":null,"wheelchair":null,"name:ja":null,"name:zh-Hant":null,"name:zh-Hans":null,"name:zh":null,"subway":null,"station":null,"wikipedia:en":null,"name:id":null,"name:en":null,"addr:full":"Jalan Raya Lenteng Agung","wikipedia":"id:Stasiun Lenteng Agung","wikidata":"Q2365018","train":"yes","railway:ref":"LNA","public_transport":"station","operator:wikidata":"Q2745027","operator:website":"https://www.kai.id","operator":"PT Kereta Api Indonesia","old_name":null,"network:wikidata":"Q12501611","network":"KAI Commuter","name:th":"เล็นเต็งอากุง","name":"Lenteng Agung","ele":"57","alt_name":"Stasiun Lenteng Agung","addr:street":null,"addr:postcode":null,"addr:country":"ID","addr:city":"DKI Jakarta"},"geometry":{"type":"Point","coordinates":[106.8346791,-6.3303079]}},
{"type":"Feature","properties":{"full_id":"n5023480157","osm_id":"5023480157","osm_type":"node","railway":"station","ref":null,"website":null,"amenity":null,"network:short":null,"name:es":null,"line_served":null,"abbr_name":null,"addr:subdistrict":null,"addr:province":null,"addr:district":null,"alt_name:zh":null,"access:roof":null,"start_date":null,"internet_access":null,"description":null,"light_rail":null,"platforms":null,"wikimedia_commons":null,"wheelchair":null,"name:ja":null,"name:zh-Hant":null,"name:zh-Hans":null,"name:zh":"丹戎不碌","subway":null,"station":null,"wikipedia:en":null,"name:id":null,"name:en":null,"addr:full":"Jalan Enggano","wikipedia":"id:Stasiun Tanjung Priuk","wikidata":"Q2216143","train":"yes","railway:ref":"TPK","public_transport":"station","operator:wikidata":"Q2745027","operator:website":"https://www.kai.id","operator":"PT Kereta Api Indonesia","old_name":null,"network:wikidata":"Q12501611","network":"KAI Commuter","name:th":"ตันจุงปรียก","name":"Tanjung Priuk","ele":"4","alt_name":"Stasiun Tanjung Priuk","addr:street":null,"addr:postcode":null,"addr:country":null,"addr:city":"DKI Jakarta"},"geometry":{"type":"Point","coordinates":[106.8814984,-6.1106914]}},
{"type":"Feature","properties":{"full_id":"n5033751697","osm_id":"5033751697","osm_type":"node","railway":"station","ref":null,"website":null,"amenity":null,"network:short":null,"name:es":null,"line_served":null,"abbr_name":null,"addr:subdistrict":null,"addr:province":null,"addr:district":null,"alt_name:zh":null,"access:roof":null,"start_date":null,"internet_access":null,"description":null,"light_rail":null,"platforms":null,"wikimedia_commons":null,"wheelchair":null,"name:ja":null,"name:zh-Hant":null,"name:zh-Hans":null,"name:zh":null,"subway":null,"station":null,"wikipedia:en":null,"name:id":null,"name:en":null,"addr:full":"Jalan Duri Kosambi Raya","wikipedia":"id:Stasiun Rawa Buaya","wikidata":"Q12516333","train":"yes","railway:ref":"RW","public_transport":"station","operator:wikidata":null,"operator:website":null,"operator":"PT Kereta Api Indonesia","old_name":null,"network:wikidata":"Q12501611","network":"KAI Commuter","name:th":"ราวาบูวายา","name":"Rawa Buaya","ele":null,"alt_name":"Stasiun Rawa Buaya","addr:street":null,"addr:postcode":null,"addr:country":null,"addr:city":"DKI Jakarta"},"geometry":{"type":"Point","coordinates":[106.7227543,-6.1627437]}},
{"type":"Feature","properties":{"full_id":"n5036305391","osm_id":"5036305391","osm_type":"node","railway":"station","ref":null,"website":null,"amenity":null,"network:short":null,"name:es":null,"line_served":null,"abbr_name":null,"addr:subdistrict":null,"addr:province":null,"addr:district":null,"alt_name:zh":null,"access:roof":null,"start_date":null,"internet_access":null,"description":null,"light_rail":null,"platforms":null,"wikimedia_commons":null,"wheelchair":null,"name:ja":"ジャヤカルタ・コタ","name:zh-Hant":null,"name:zh-Hans":null,"name:zh":null,"subway":null,"station":null,"wikipedia:en":null,"name:id":null,"name:en":null,"addr:full":"Jalan Lada","wikipedia":"id:Stasiun Jakarta Kota","wikidata":"Q1975437","train":"yes","railway:ref":"JAKK","public_transport":"station","operator:wikidata":"Q2745027","operator:website":"https://www.kai.id","operator":"PT Kereta Api Indonesia","old_name":null,"network:wikidata":"Q2745027","network":"KAI","name:th":"จาการ์ตาโกตา","name":"Jakarta Kota","ele":"4","alt_name":"Stasiun Jakarta Kota","addr:street":null,"addr:postcode":null,"addr:country":null,"addr:city":"DKI Jakarta"},"geometry":{"type":"Point","coordinates":[106.8146203,-6.1375828]}},
{"type":"Feature","properties":{"full_id":"n5047494890","osm_id":"5047494890","osm_type":"node","railway":"station","ref":null,"website":null,"amenity":null,"network:short":null,"name:es":null,"line_served":null,"abbr_name":null,"addr:subdistrict":null,"addr:province":null,"addr:district":null,"alt_name:zh":null,"access:roof":null,"start_date":null,"internet_access":null,"description":null,"light_rail":null,"platforms":null,"wikimedia_commons":null,"wheelchair":null,"name:ja":null,"name:zh-Hant":null,"name:zh-Hans":null,"name:zh":null,"subway":null,"station":null,"wikipedia:en":"Grogol railway station","name:id":null,"name:en":null,"addr:full":"Jalan Prof Dr Latumenten","wikipedia":"id:Stasiun Grogol","wikidata":"Q27963601","train":"yes","railway:ref":"GRG","public_transport":"station","operator:wikidata":null,"operator:website":null,"operator":"PT Kereta Api Indonesia","old_name":null,"network:wikidata":"Q12501611","network":"KAI Commuter","name:th":"โกรกล","name":"Grogol","ele":null,"alt_name":"Stasiun Grogol","addr:street":null,"addr:postcode":null,"addr:country":null,"addr:city":"DKI Jakarta"},"geometry":{"type":"Point","coordinates":[106.7896101,-6.162035]}},
{"type":"Feature","properties":{"full_id":"n5070781613","osm_id":"5070781613","osm_type":"node","railway":"station","ref":null,"website":null,"amenity":null,"network:short":null,"name:es":null,"line_served":null,"abbr_name":null,"addr:subdistrict":null,"addr:province":null,"addr:district":null,"alt_name:zh":null,"access:roof":null,"start_date":null,"internet_access":null,"description":null,"light_rail":null,"platforms":null,"wikimedia_commons":null,"wheelchair":null,"name:ja":null,"name:zh-Hant":"哇由蘭","name:zh-Hans":"哇由兰","name:zh":"哇由蘭","subway":null,"station":null,"wikipedia:en":null,"name:id":null,"name:en":null,"addr:full":null,"wikipedia":"id:Stasiun Kebayoran","wikidata":"Q28163944","train":"yes","railway:ref":"KBY","public_transport":"station","operator:wikidata":null,"operator:website":null,"operator":"PT Kereta Api Indonesia","old_name":null,"network:wikidata":"Q12501611","network":"KAI Commuter","name:th":null,"name":"Kebayoran","ele":null,"alt_name":"Stasiun Kebayoran","addr:street":null,"addr:postcode":null,"addr:country":null,"addr:city":"DKI Jakarta"},"geometry":{"type":"Point","coordinates":[106.7825345,-6.23723]}},
{"type":"Feature","properties":{"full_id":"n5070875099","osm_id":"5070875099","osm_type":"node","railway":"station","ref":null,"website":null,"amenity":null,"network:short":null,"name:es":null,"line_served":null,"abbr_name":null,"addr:subdistrict":null,"addr:province":null,"addr:district":null,"alt_name:zh":null,"access:roof":null,"start_date":null,"internet_access":null,"description":null,"light_rail":null,"platforms":null,"wikimedia_commons":null,"wheelchair":null,"name:ja":null,"name:zh-Hant":null,"name:zh-Hans":null,"name:zh":null,"subway":null,"station":null,"wikipedia:en":null,"name:id":null,"name:en":null,"addr:full":"Jalan Raya Taman Kota","wikipedia":"id:Stasiun Taman Kota","wikidata":"Q19741281","train":"yes","railway:ref":"TKO","public_transport":"station","operator:wikidata":null,"operator:website":null,"operator":"PT Kereta Api Indonesia","old_name":null,"network:wikidata":"Q12501611","network":"KAI Commuter","name:th":"ตามันโกตา","name":"Taman Kota","ele":null,"alt_name":"Stasiun Taman Kota","addr:street":null,"addr:postcode":null,"addr:country":null,"addr:city":"DKI Jakarta"},"geometry":{"type":"Point","coordinates":[106.7565728,-6.158627]}},
{"type":"Feature","properties":{"full_id":"n5124126895","osm_id":"5124126895","osm_type":"node","railway":"station","ref":null,"website":null,"amenity":null,"network:short":null,"name:es":null,"line_served":null,"abbr_name":null,"addr:subdistrict":null,"addr:province":null,"addr:district":null,"alt_name:zh":"安卒","access:roof":null,"start_date":null,"internet_access":null,"description":null,"light_rail":null,"platforms":null,"wikimedia_commons":null,"wheelchair":null,"name:ja":null,"name:zh-Hant":null,"name:zh-Hans":null,"name:zh":"安恤","subway":null,"station":null,"wikipedia:en":null,"name:id":null,"name:en":null,"addr:full":null,"wikipedia":"id:Stasiun Ancol","wikidata":"Q2319542","train":"yes","railway:ref":"AC","public_transport":"station","operator:wikidata":"Q2745027","operator:website":"https://www.kai.id","operator":"PT Kereta Api Indonesia","old_name":null,"network:wikidata":"Q12501611","network":"KAI Commuter","name:th":"อันจล","name":"Ancol","ele":null,"alt_name":"Stasiun Ancol","addr:street":"Laksamana RE Martadinata","addr:postcode":null,"addr:country":null,"addr:city":"DKI Jakarta"},"geometry":{"type":"Point","coordinates":[106.8451374,-6.128115]}},
{"type":"Feature","properties":{"full_id":"n5136968956","osm_id":"5136968956","osm_type":"node","railway":"station","ref":null,"website":null,"amenity":null,"network:short":null,"name:es":null,"line_served":null,"abbr_name":null,"addr:subdistrict":"Ancol","addr:province":"DKI Jakarta","addr:district":"Pademangan","alt_name:zh":null,"access:roof":null,"start_date":null,"internet_access":null,"description":null,"light_rail":null,"platforms":null,"wikimedia_commons":null,"wheelchair":null,"name:ja":null,"name:zh-Hant":null,"name:zh-Hans":null,"name:zh":null,"subway":null,"station":null,"wikipedia:en":null,"name:id":null,"name:en":null,"addr:full":null,"wikipedia":"id:Stasiun Jakarta Gudang","wikidata":"Q19752855","train":"yes","railway:ref":"JAKG","public_transport":"station","operator:wikidata":"Q2745027","operator:website":"https://www.kai.id","operator":"PT Kereta Api Indonesia","old_name":null,"network:wikidata":"Q2745027","network":"KAI","name:th":null,"name":"Jakarta Gudang","ele":"4","alt_name":"Stasiun Jakarta Gudang","addr:street":"Jalan Kampung Bandan","addr:postcode":null,"addr:country":null,"addr:city":"Jakarta Utara"},"geometry":{"type":"Point","coordinates":[106.819373,-6.133327]}},
{"type":"Feature","properties":{"full_id":"n5579655834","osm_id":"5579655834","osm_type":"node","railway":"station","ref":null,"website":null,"amenity":null,"network:short":null,"name:es":null,"line_served":null,"abbr_name":null,"addr:subdistrict":null,"addr:province":null,"addr:district":null,"alt_name:zh":null,"access:roof":null,"start_date":null,"internet_access":null,"description":null,"light_rail":null,"platforms":null,"wikimedia_commons":null,"wheelchair":null,"name:ja":null,"name:zh-Hant":null,"name:zh-Hans":null,"name:zh":null,"subway":null,"station":null,"wikipedia:en":null,"name:id":null,"name:en":null,"addr:full":null,"wikipedia":"id:Stasiun Kampung Bandan","wikidata":"Q2719478","train":"yes","railway:ref":"KPB","public_transport":"station","operator:wikidata":"Q2745027","operator:website":"https://www.kai.id","operator":"PT Kereta Api Indonesia","old_name":null,"network:wikidata":"Q12501611","network":"KAI Commuter","name:th":"กัมปุงบันดัน","name":"Kampung Bandan","ele":"3;5","alt_name":null,"addr:street":"Laksamana RE Martadinata","addr:postcode":"14440","addr:country":null,"addr:city":"DKI Jakarta"},"geometry":{"type":"Point","coordinates":[106.8284875,-6.1327023]}},
{"type":"Feature","properties":{"full_id":"n5726702622","osm_id":"5726702622","osm_type":"node","railway":"station","ref":null,"website":null,"amenity":null,"network:short":null,"name:es":null,"line_served":null,"abbr_name":"JIS","addr:subdistrict":null,"addr:province":null,"addr:district":null,"alt_name:zh":null,"access:roof":null,"start_date":null,"internet_access":null,"description":null,"light_rail":null,"platforms":null,"wikimedia_commons":null,"wheelchair":null,"name:ja":null,"name:zh-Hant":null,"name:zh-Hans":null,"name:zh":null,"subway":null,"station":null,"wikipedia:en":null,"name:id":null,"name:en":null,"addr:full":null,"wikipedia":"id:Stasiun Jakarta International Stadium","wikidata":"Q135684142","train":"yes","railway:ref":"JIS","public_transport":"station","operator:wikidata":null,"operator:website":null,"operator":null,"old_name":"Sungai Tirem","network:wikidata":"Q12501611","network":"KAI Commuter","name:th":"สนามกีฬานานาชาติจาการ์ตา","name":"Jakarta International Stadium","ele":null,"alt_name":null,"addr:street":null,"addr:postcode":null,"addr:country":null,"addr:city":null},"geometry":{"type":"Point","coordinates":[106.8613596,-6.1228211]}},
{"type":"Feature","properties":{"full_id":"n5851224882","osm_id":"5851224882","osm_type":"node","railway":"station","ref":null,"website":null,"amenity":null,"network:short":null,"name:es":"Halim","line_served":"Jakarta–Bandung high speed rail","abbr_name":null,"addr:subdistrict":null,"addr:province":null,"addr:district":null,"alt_name:zh":null,"access:roof":null,"start_date":null,"internet_access":null,"description":null,"light_rail":null,"platforms":null,"wikimedia_commons":null,"wheelchair":null,"name:ja":"ハリム","name:zh-Hant":null,"name:zh-Hans":null,"name:zh":"哈林","subway":null,"station":null,"wikipedia:en":null,"name:id":null,"name:en":"Halim","addr:full":null,"wikipedia":"id:Stasiun Halim","wikidata":"Q111590566","train":null,"railway:ref":"HLM","public_transport":"station","operator:wikidata":null,"operator:website":null,"operator":"PT KCIC","old_name":null,"network:wikidata":null,"network":"Whoosh","name:th":null,"name":"Halim","ele":null,"alt_name":null,"addr:street":null,"addr:postcode":null,"addr:country":null,"addr:city":null},"geometry":{"type":"Point","coordinates":[106.8844875,-6.2456352]}},
{"type":"Feature","properties":{"full_id":"n5984702926","osm_id":"5984702926","osm_type":"node","railway":"station","ref":null,"website":null,"amenity":null,"network:short":null,"name:es":null,"line_served":null,"abbr_name":null,"addr:subdistrict":null,"addr:province":null,"addr:district":null,"alt_name:zh":null,"access:roof":null,"start_date":null,"internet_access":null,"description":null,"light_rail":"yes","platforms":null,"wikimedia_commons":null,"wheelchair":null,"name:ja":null,"name:zh-Hant":null,"name:zh-Hans":null,"name:zh":null,"subway":null,"station":"light_rail","wikipedia:en":null,"name:id":null,"name:en":null,"addr:full":null,"wikipedia":"id:Stasiun LRT Boulevard Utara Summarecon Mall","wikidata":"Q65760424","train":null,"railway:ref":null,"public_transport":"station","operator:wikidata":null,"operator:website":null,"operator":"PT LRT Jakarta","old_name":null,"network:wikidata":null,"network":"LRT Jakarta","name:th":null,"name":"Boulevard Utara Summarecon Mall","ele":null,"alt_name":null,"addr:street":null,"addr:postcode":null,"addr:country":null,"addr:city":null},"geometry":{"type":"Point","coordinates":[106.906024,-6.1594082]}},
{"type":"Feature","properties":{"full_id":"n5984702927","osm_id":"5984702927","osm_type":"node","railway":"station","ref":null,"website":null,"amenity":null,"network:short":null,"name:es":null,"line_served":null,"abbr_name":null,"addr:subdistrict":null,"addr:province":null,"addr:district":null,"alt_name:zh":null,"access:roof":null,"start_date":null,"internet_access":null,"description":null,"light_rail":"yes","platforms":null,"wikimedia_commons":null,"wheelchair":null,"name:ja":null,"name:zh-Hant":null,"name:zh-Hans":null,"name:zh":null,"subway":null,"station":"light_rail","wikipedia:en":null,"name:id":null,"name:en":null,"addr:full":null,"wikipedia":"id:Stasiun LRT Boulevard Selatan","wikidata":"Q9970006","train":null,"railway:ref":null,"public_transport":"station","operator:wikidata":null,"operator:website":null,"operator":"PT LRT Jakarta","old_name":null,"network:wikidata":null,"network":"LRT Jakarta","name:th":null,"name":"Boulevard Selatan","ele":null,"alt_name":null,"addr:street":null,"addr:postcode":null,"addr:country":null,"addr:city":null},"geometry":{"type":"Point","coordinates":[106.8998732,-6.1691934]}},
{"type":"Feature","properties":{"full_id":"n5984702928","osm_id":"5984702928","osm_type":"node","railway":"station","ref":null,"website":null,"amenity":null,"network:short":null,"name:es":null,"line_served":null,"abbr_name":null,"addr:subdistrict":null,"addr:province":null,"addr:district":null,"alt_name:zh":null,"access:roof":null,"start_date":null,"internet_access":null,"description":null,"light_rail":"yes","platforms":null,"wikimedia_commons":null,"wheelchair":null,"name:ja":null,"name:zh-Hant":null,"name:zh-Hans":null,"name:zh":null,"subway":null,"station":"light_rail","wikipedia:en":null,"name:id":null,"name:en":null,"addr:full":null,"wikipedia":"id:Stasiun LRT Pulomas","wikidata":"Q9971976","train":null,"railway:ref":null,"public_transport":"station","operator:wikidata":null,"operator:website":null,"operator":"PT LRT Jakarta","old_name":null,"network:wikidata":null,"network":"LRT Jakarta","name:th":null,"name":"Pulomas","ele":null,"alt_name":null,"addr:street":null,"addr:postcode":null,"addr:country":null,"addr:city":null},"geometry":{"type":"Point","coordinates":[106.8933929,-6.1773105]}},
{"type":"Feature","properties":{"full_id":"n5984702929","osm_id":"5984702929","osm_type":"node","railway":"station","ref":null,"website":null,"amenity":null,"network:short":null,"name:es":null,"line_served":null,"abbr_name":null,"addr:subdistrict":null,"addr:province":null,"addr:district":null,"alt_name:zh":null,"access:roof":null,"start_date":null,"internet_access":null,"description":null,"light_rail":"yes","platforms":null,"wikimedia_commons":null,"wheelchair":null,"name:ja":null,"name:zh-Hant":null,"name:zh-Hans":null,"name:zh":null,"subway":null,"station":"light_rail","wikipedia:en":null,"name:id":null,"name:en":null,"addr:full":null,"wikipedia":"id:Stasiun LRT Equestrian","wikidata":"Q25329601","train":null,"railway:ref":null,"public_transport":"station","operator:wikidata":null,"operator:website":null,"operator":"PT LRT Jakarta","old_name":null,"network:wikidata":null,"network":"LRT Jakarta","name:th":null,"name":"Equestrian","ele":null,"alt_name":null,"addr:street":null,"addr:postcode":null,"addr:country":null,"addr:city":null},"geometry":{"type":"Point","coordinates":[106.8913536,-6.1835534]}},
{"type":"Feature","properties":{"full_id":"n5984702930","osm_id":"5984702930","osm_type":"node","railway":"station","ref":null,"website":null,"amenity":null,"network:short":null,"name:es":null,"line_served":null,"abbr_name":null,"addr:subdistrict":null,"addr:province":null,"addr:district":null,"alt_name:zh":null,"access:roof":null,"start_date":null,"internet_access":null,"description":null,"light_rail":"yes","platforms":null,"wikimedia_commons":null,"wheelchair":null,"name:ja":null,"name:zh-Hant":null,"name:zh-Hans":null,"name:zh":null,"subway":null,"station":"light_rail","wikipedia:en":null,"name:id":null,"name:en":null,"addr:full":null,"wikipedia":"id:Stasiun LRT Velodrome","wikidata":"Q20462389","train":"yes","railway:ref":null,"public_transport":"station","operator:wikidata":null,"operator:website":null,"operator":"PT LRT Jakarta","old_name":null,"network:wikidata":null,"network":"LRT Jakarta","name:th":null,"name":"Velodrome","ele":null,"alt_name":null,"addr:street":null,"addr:postcode":null,"addr:country":null,"addr:city":null},"geometry":{"type":"Point","coordinates":[106.8911771,-6.1921316]}},
{"type":"Feature","properties":{"full_id":"n5984702931","osm_id":"5984702931","osm_type":"node","railway":"station","ref":null,"website":null,"amenity":null,"network:short":null,"name:es":null,"line_served":null,"abbr_name":null,"addr:subdistrict":null,"addr:province":null,"addr:district":null,"alt_name:zh":null,"access:roof":null,"start_date":null,"internet_access":null,"description":null,"light_rail":"yes","platforms":null,"wikimedia_commons":null,"wheelchair":null,"name:ja":null,"name:zh-Hant":null,"name:zh-Hans":null,"name:zh":null,"subway":null,"station":"light_rail","wikipedia:en":null,"name:id":null,"name:en":null,"addr:full":null,"wikipedia":null,"wikidata":"Q8708716","train":null,"railway:ref":"KPG","public_transport":"station","operator:wikidata":null,"operator:website":null,"operator":"PT LRT Jakarta","old_name":"Pegangsaan Dua","network:wikidata":null,"network":"LRT Jakarta","name:th":null,"name":"Kelapa Gading","ele":null,"alt_name":null,"addr:street":null,"addr:postcode":null,"addr:country":"ID","addr:city":"DKI Jakarta"},"geometry":{"type":"Point","coordinates":[106.9142091,-6.1572135]}},
{"type":"Feature","properties":{"full_id":"n6196107719","osm_id":"6196107719","osm_type":"node","railway":"station","ref":null,"website":null,"amenity":null,"network:short":"MRTJ","name:es":null,"line_served":null,"abbr_name":null,"addr:subdistrict":null,"addr:province":null,"addr:district":null,"alt_name:zh":null,"access:roof":null,"start_date":null,"internet_access":null,"description":null,"light_rail":null,"platforms":null,"wikimedia_commons":null,"wheelchair":null,"name:ja":null,"name:zh-Hant":null,"name:zh-Hans":null,"name:zh":null,"subway":"yes","station":"subway","wikipedia:en":null,"name:id":null,"name:en":null,"addr:full":null,"wikipedia":"id:Stasiun MRT Bundaran Hotel Indonesia","wikidata":"Q52906919","train":null,"railway:ref":"BHI","public_transport":"station","operator:wikidata":"Q3333785","operator:website":null,"operator":"MRT Jakarta","old_name":null,"network:wikidata":"Q3333785","network":"MRT Jakarta","name:th":"บันดารัน","name":"Bundaran HI Bank Jakarta","ele":null,"alt_name":"Stasiun Bundaran HI","addr:street":"Jalan M.H. Thamrin","addr:postcode":null,"addr:country":null,"addr:city":"Central Jakarta"},"geometry":{"type":"Point","coordinates":[106.8230084,-6.1918644]}},
{"type":"Feature","properties":{"full_id":"n6196107720","osm_id":"6196107720","osm_type":"node","railway":"station","ref":null,"website":null,"amenity":null,"network:short":"MRTJ","name:es":null,"line_served":null,"abbr_name":null,"addr:subdistrict":null,"addr:province":null,"addr:district":null,"alt_name:zh":null,"access:roof":null,"start_date":null,"internet_access":null,"description":null,"light_rail":null,"platforms":null,"wikimedia_commons":null,"wheelchair":null,"name:ja":null,"name:zh-Hant":null,"name:zh-Hans":null,"name:zh":null,"subway":"yes","station":"subway","wikipedia:en":null,"name:id":null,"name:en":null,"addr:full":null,"wikipedia":"id:Stasiun MRT Dukuh Atas","wikidata":"Q61365190","train":null,"railway:ref":"DKA","public_transport":"station","operator:wikidata":"Q3333785","operator:website":null,"operator":"MRT Jakarta","old_name":null,"network:wikidata":"Q3333785","network":"MRT Jakarta","name:th":"ดูกุฮ์อาตัซ","name":"Dukuh Atas BNI","ele":null,"alt_name":"Stasiun Dukuh Atas","addr:street":null,"addr:postcode":null,"addr:country":null,"addr:city":null},"geometry":{"type":"Point","coordinates":[106.822788,-6.2007957]}},
{"type":"Feature","properties":{"full_id":"n6196107721","osm_id":"6196107721","osm_type":"node","railway":"station","ref":null,"website":null,"amenity":null,"network:short":"MRTJ","name:es":null,"line_served":null,"abbr_name":null,"addr:subdistrict":null,"addr:province":null,"addr:district":null,"alt_name:zh":null,"access:roof":null,"start_date":null,"internet_access":"yes","description":null,"light_rail":null,"platforms":null,"wikimedia_commons":null,"wheelchair":null,"name:ja":null,"name:zh-Hant":null,"name:zh-Hans":null,"name:zh":null,"subway":"yes","station":"subway","wikipedia:en":null,"name:id":null,"name:en":null,"addr:full":null,"wikipedia":"id:Stasiun MRT Setiabudi","wikidata":"Q61365174","train":null,"railway:ref":"STB","public_transport":"station","operator:wikidata":"Q3333785","operator:website":null,"operator":"MRT Jakarta","old_name":null,"network:wikidata":"Q3333785","network":"MRT Jakarta","name:th":"เซอตียาบูดี","name":"Setiabudi Astra","ele":null,"alt_name":"Stasiun Setiabudi","addr:street":"Jalan Jend. Sudirman","addr:postcode":null,"addr:country":null,"addr:city":"South Jakarta"},"geometry":{"type":"Point","coordinates":[106.8216945,-6.2090648]}},
{"type":"Feature","properties":{"full_id":"n6196107722","osm_id":"6196107722","osm_type":"node","railway":"station","ref":null,"website":null,"amenity":"bus_station","network:short":"MRTJ","name:es":null,"line_served":null,"abbr_name":null,"addr:subdistrict":null,"addr:province":null,"addr:district":null,"alt_name:zh":null,"access:roof":null,"start_date":null,"internet_access":null,"description":null,"light_rail":null,"platforms":null,"wikimedia_commons":null,"wheelchair":null,"name:ja":null,"name:zh-Hant":null,"name:zh-Hans":null,"name:zh":null,"subway":"yes","station":"subway","wikipedia:en":null,"name:id":null,"name:en":null,"addr:full":null,"wikipedia":"id:Stasiun MRT Bendungan Hilir","wikidata":"Q61365164","train":null,"railway:ref":"BNH","public_transport":"station","operator:wikidata":"Q3333785","operator:website":null,"operator":"MRT Jakarta","old_name":null,"network:wikidata":"Q3333785","network":"MRT Jakarta","name:th":"เบินดูงันฮีลีร์","name":"Bendungan Hilir","ele":null,"alt_name":"Stasiun Bendungan Hilir","addr:street":null,"addr:postcode":null,"addr:country":null,"addr:city":null},"geometry":{"type":"Point","coordinates":[106.8179484,-6.2150263]}},
{"type":"Feature","properties":{"full_id":"n6196107723","osm_id":"6196107723","osm_type":"node","railway":"station","ref":null,"website":null,"amenity":null,"network:short":"MRTJ","name:es":null,"line_served":null,"abbr_name":null,"addr:subdistrict":null,"addr:province":null,"addr:district":null,"alt_name:zh":null,"access:roof":null,"start_date":null,"internet_access":"yes","description":"North-South Line","light_rail":null,"platforms":null,"wikimedia_commons":null,"wheelchair":null,"name:ja":null,"name:zh-Hant":null,"name:zh-Hans":null,"name:zh":null,"subway":"yes","station":"subway","wikipedia:en":null,"name:id":null,"name:en":null,"addr:full":null,"wikipedia":"id:Stasiun MRT Istora","wikidata":"Q61365156","train":null,"railway:ref":"IST","public_transport":"station","operator:wikidata":"Q3333785","operator:website":null,"operator":"MRT Jakarta","old_name":null,"network:wikidata":"Q3333785","network":"MRT Jakarta","name:th":"อิสโตรา","name":"Istora Mandiri","ele":null,"alt_name":"Stasiun Istora","addr:street":"Jalan Jend. Sudirman","addr:postcode":null,"addr:country":null,"addr:city":"South Jakarta"},"geometry":{"type":"Point","coordinates":[106.8086229,-6.22239]}},
{"type":"Feature","properties":{"full_id":"n6196107724","osm_id":"6196107724","osm_type":"node","railway":"station","ref":null,"website":null,"amenity":null,"network:short":"MRTJ","name:es":null,"line_served":null,"abbr_name":null,"addr:subdistrict":null,"addr:province":null,"addr:district":null,"alt_name:zh":null,"access:roof":null,"start_date":null,"internet_access":null,"description":null,"light_rail":null,"platforms":null,"wikimedia_commons":null,"wheelchair":null,"name:ja":null,"name:zh-Hant":null,"name:zh-Hans":null,"name:zh":null,"subway":"yes","station":"subway","wikipedia:en":"en:Senayan Mastercard MRT station","name:id":null,"name:en":null,"addr:full":null,"wikipedia":"id:Stasiun MRT Senayan","wikidata":"Q61365153","train":null,"railway:ref":"SNY","public_transport":"station","operator:wikidata":"Q3333785","operator:website":null,"operator":"MRT Jakarta","old_name":null,"network:wikidata":"Q3333785","network":"MRT Jakarta","name:th":"เซอนายัน","name":"Senayan Mastercard","ele":null,"alt_name":"Stasiun Senayan","addr:street":null,"addr:postcode":null,"addr:country":null,"addr:city":null},"geometry":{"type":"Point","coordinates":[106.8024926,-6.2267337]}},
{"type":"Feature","properties":{"full_id":"n6196107726","osm_id":"6196107726","osm_type":"node","railway":"station","ref":null,"website":null,"amenity":null,"network:short":"MRTJ","name:es":null,"line_served":null,"abbr_name":null,"addr:subdistrict":null,"addr:province":null,"addr:district":null,"alt_name:zh":null,"access:roof":null,"start_date":null,"internet_access":null,"description":null,"light_rail":null,"platforms":null,"wikimedia_commons":null,"wheelchair":null,"name:ja":null,"name:zh-Hant":null,"name:zh-Hans":null,"name:zh":null,"subway":"yes","station":"subway","wikipedia:en":null,"name:id":null,"name:en":null,"addr:full":null,"wikipedia":"id:Stasiun MRT Blok M","wikidata":"Q61365118","train":null,"railway:ref":"BLM","public_transport":"station","operator:wikidata":"Q3333785","operator:website":null,"operator":"MRT Jakarta","old_name":null,"network:wikidata":"Q3333785","network":"MRT Jakarta","name:th":"บลกเอ็ม","name":"Blok M BCA","ele":null,"alt_name":"Stasiun Blok M","addr:street":null,"addr:postcode":null,"addr:country":null,"addr:city":null},"geometry":{"type":"Point","coordinates":[106.7981332,-6.2444643]}},
{"type":"Feature","properties":{"full_id":"n6196107727","osm_id":"6196107727","osm_type":"node","railway":"station","ref":null,"website":null,"amenity":null,"network:short":"MRTJ","name:es":null,"line_served":null,"abbr_name":null,"addr:subdistrict":null,"addr:province":null,"addr:district":null,"alt_name:zh":null,"access:roof":null,"start_date":null,"internet_access":null,"description":null,"light_rail":null,"platforms":null,"wikimedia_commons":null,"wheelchair":null,"name:ja":null,"name:zh-Hant":null,"name:zh-Hans":null,"name:zh":null,"subway":"yes","station":"subway","wikipedia:en":null,"name:id":null,"name:en":null,"addr:full":null,"wikipedia":"id:Stasiun MRT Blok A","wikidata":"Q61365108","train":null,"railway:ref":"BLA","public_transport":"station","operator:wikidata":"Q3333785","operator:website":null,"operator":"MRT Jakarta","old_name":null,"network:wikidata":"Q3333785","network":"MRT Jakarta","name:th":"บลกอา","name":"Blok A VISA","ele":null,"alt_name":"Stasiun Blok A","addr:street":null,"addr:postcode":null,"addr:country":null,"addr:city":null},"geometry":{"type":"Point","coordinates":[106.7971403,-6.2557793]}},
{"type":"Feature","properties":{"full_id":"n6196107728","osm_id":"6196107728","osm_type":"node","railway":"station","ref":null,"website":null,"amenity":null,"network:short":"MRTJ","name:es":null,"line_served":null,"abbr_name":null,"addr:subdistrict":null,"addr:province":null,"addr:district":null,"alt_name:zh":null,"access:roof":null,"start_date":null,"internet_access":null,"description":null,"light_rail":null,"platforms":null,"wikimedia_commons":null,"wheelchair":null,"name:ja":null,"name:zh-Hant":null,"name:zh-Hans":null,"name:zh":null,"subway":"yes","station":"subway","wikipedia:en":null,"name:id":null,"name:en":null,"addr:full":null,"wikipedia":"id:Stasiun MRT Haji Nawi","wikidata":"Q61365102","train":null,"railway:ref":"HJN","public_transport":"station","operator:wikidata":"Q3333785","operator:website":null,"operator":"MRT Jakarta","old_name":null,"network:wikidata":"Q3333785","network":"MRT Jakarta","name:th":"ฮาจีนาวี","name":"Haji Nawi","ele":null,"alt_name":"Stasiun Haji Nawi","addr:street":null,"addr:postcode":null,"addr:country":null,"addr:city":null},"geometry":{"type":"Point","coordinates":[106.7973262,-6.2666947]}},
{"type":"Feature","properties":{"full_id":"n6196107729","osm_id":"6196107729","osm_type":"node","railway":"station","ref":null,"website":null,"amenity":null,"network:short":"MRTJ","name:es":null,"line_served":null,"abbr_name":null,"addr:subdistrict":null,"addr:province":null,"addr:district":null,"alt_name:zh":null,"access:roof":null,"start_date":null,"internet_access":null,"description":null,"light_rail":null,"platforms":null,"wikimedia_commons":null,"wheelchair":null,"name:ja":null,"name:zh-Hant":null,"name:zh-Hans":null,"name:zh":null,"subway":"yes","station":"subway","wikipedia:en":null,"name:id":null,"name:en":null,"addr:full":null,"wikipedia":"id:Stasiun MRT Cipete Raya","wikidata":"Q61365099","train":null,"railway:ref":"CPR","public_transport":"station","operator:wikidata":"Q3333785","operator:website":null,"operator":"MRT Jakarta","old_name":null,"network:wikidata":"Q3333785","network":"MRT Jakarta","name:th":"จีเปเต","name":"Cipete Raya TUKU","ele":null,"alt_name":"Stasiun Cipete Raya","addr:street":null,"addr:postcode":null,"addr:country":null,"addr:city":null},"geometry":{"type":"Point","coordinates":[106.7973159,-6.2783596]}},
{"type":"Feature","properties":{"full_id":"n6577753462","osm_id":"6577753462","osm_type":"node","railway":"station","ref":null,"website":"https://jakartamrt.co.id/","amenity":null,"network:short":"MRTJ","name:es":null,"line_served":null,"abbr_name":null,"addr:subdistrict":null,"addr:province":null,"addr:district":null,"alt_name:zh":null,"access:roof":null,"start_date":null,"internet_access":"yes","description":null,"light_rail":null,"platforms":null,"wikimedia_commons":null,"wheelchair":null,"name:ja":null,"name:zh-Hant":null,"name:zh-Hans":null,"name:zh":null,"subway":"yes","station":"subway","wikipedia:en":null,"name:id":null,"name:en":null,"addr:full":null,"wikipedia":"id:Stasiun MRT Fatmawati","wikidata":"Q61365063","train":null,"railway:ref":"FTM","public_transport":"station","operator:wikidata":"Q3333785","operator:website":null,"operator":"MRT Jakarta","old_name":null,"network:wikidata":"Q3333785","network":"MRT Jakarta","name:th":"ฟัตมาวาตี","name":"Fatmawati Indomaret","ele":null,"alt_name":"Stasiun Fatmawati","addr:street":null,"addr:postcode":null,"addr:country":null,"addr:city":null},"geometry":{"type":"Point","coordinates":[106.7924644,-6.2924511]}},
{"type":"Feature","properties":{"full_id":"n6577753463","osm_id":"6577753463","osm_type":"node","railway":"station","ref":null,"website":null,"amenity":null,"network:short":"MRTJ","name:es":null,"line_served":null,"abbr_name":null,"addr:subdistrict":null,"addr:province":null,"addr:district":null,"alt_name:zh":null,"access:roof":null,"start_date":null,"internet_access":null,"description":null,"light_rail":null,"platforms":null,"wikimedia_commons":null,"wheelchair":"yes","name:ja":null,"name:zh-Hant":null,"name:zh-Hans":null,"name:zh":null,"subway":"yes","station":"subway","wikipedia:en":null,"name:id":null,"name:en":null,"addr:full":null,"wikipedia":"id:Stasiun MRT Lebak Bulus","wikidata":"Q61365057","train":null,"railway:ref":"LBB","public_transport":"station","operator:wikidata":"Q3333785","operator:website":null,"operator":"MRT Jakarta","old_name":null,"network:wikidata":"Q3333785","network":"MRT Jakarta","name:th":"เลอบักบูลุซ","name":"Lebak Bulus Bank Syariah Indonesia","ele":null,"alt_name":"Stasiun Lebak Bulus","addr:street":null,"addr:postcode":null,"addr:country":null,"addr:city":null},"geometry":{"type":"Point","coordinates":[106.7749355,-6.2892744]}},
{"type":"Feature","properties":{"full_id":"n6720467131","osm_id":"6720467131","osm_type":"node","railway":"station","ref":null,"website":null,"amenity":null,"network:short":null,"name:es":null,"line_served":null,"abbr_name":null,"addr:subdistrict":null,"addr:province":null,"addr:district":null,"alt_name:zh":null,"access:roof":null,"start_date":null,"internet_access":null,"description":null,"light_rail":"yes","platforms":null,"wikimedia_commons":null,"wheelchair":null,"name:ja":null,"name:zh-Hant":null,"name:zh-Hans":null,"name:zh":null,"subway":null,"station":"light_rail","wikipedia:en":null,"name:id":null,"name:en":null,"addr:full":null,"wikipedia":"id:Stasiun LRT Cikoko","wikidata":"Q10166205","train":null,"railway:ref":null,"public_transport":"station","operator:wikidata":null,"operator:website":null,"operator":"PT Kereta Api Indonesia (Persero), Divisi LRT Jabodebek","old_name":null,"network:wikidata":"Q20427104","network":"LRT Jabodebek","name:th":null,"name":"Cikoko","ele":null,"alt_name":null,"addr:street":null,"addr:postcode":null,"addr:country":null,"addr:city":"Jakarta"},"geometry":{"type":"Point","coordinates":[106.8570718,-6.2434846]}},
{"type":"Feature","properties":{"full_id":"n6720467132","osm_id":"6720467132","osm_type":"node","railway":"station","ref":null,"website":null,"amenity":null,"network:short":null,"name:es":null,"line_served":null,"abbr_name":null,"addr:subdistrict":null,"addr:province":null,"addr:district":null,"alt_name:zh":null,"access:roof":null,"start_date":null,"internet_access":null,"description":null,"light_rail":"yes","platforms":null,"wikimedia_commons":null,"wheelchair":null,"name:ja":null,"name:zh-Hant":null,"name:zh-Hans":null,"name:zh":null,"subway":null,"station":"light_rail","wikipedia:en":null,"name:id":null,"name:en":null,"addr:full":null,"wikipedia":"id:Stasiun LRT Pancoran","wikidata":"Q10166185","train":null,"railway:ref":null,"public_transport":"station","operator:wikidata":null,"operator:website":null,"operator":"PT Kereta Api Indonesia (Persero), Divisi LRT Jabodebek","old_name":null,"network:wikidata":"Q20427104","network":"LRT Jabodebek","name:th":null,"name":"Pancoran","ele":null,"alt_name":null,"addr:street":null,"addr:postcode":null,"addr:country":null,"addr:city":"Jakarta"},"geometry":{"type":"Point","coordinates":[106.8385146,-6.2421415]}},
{"type":"Feature","properties":{"full_id":"n6720467135","osm_id":"6720467135","osm_type":"node","railway":"station","ref":null,"website":null,"amenity":null,"network:short":null,"name:es":null,"line_served":null,"abbr_name":null,"addr:subdistrict":null,"addr:province":null,"addr:district":null,"alt_name:zh":null,"access:roof":null,"start_date":null,"internet_access":null,"description":null,"light_rail":"yes","platforms":null,"wikimedia_commons":null,"wheelchair":null,"name:ja":null,"name:zh-Hant":null,"name:zh-Hans":null,"name:zh":null,"subway":null,"station":"light_rail","wikipedia:en":null,"name:id":null,"name:en":null,"addr:full":null,"wikipedia":"id:Stasiun LRT Setiabudi","wikidata":"Q21177475","train":null,"railway:ref":null,"public_transport":"station","operator:wikidata":null,"operator:website":null,"operator":"PT Kereta Api Indonesia (Persero), Divisi LRT Jabodebek","old_name":null,"network:wikidata":"Q20427104","network":"LRT Jabodebek","name:th":null,"name":"Setiabudi","ele":null,"alt_name":null,"addr:street":null,"addr:postcode":null,"addr:country":null,"addr:city":"Jakarta"},"geometry":{"type":"Point","coordinates":[106.8302343,-6.2093224]}},
{"type":"Feature","properties":{"full_id":"n6720467136","osm_id":"6720467136","osm_type":"node","railway":"station","ref":null,"website":null,"amenity":null,"network:short":null,"name:es":null,"line_served":null,"abbr_name":null,"addr:subdistrict":null,"addr:province":null,"addr:district":null,"alt_name:zh":null,"access:roof":null,"start_date":null,"internet_access":null,"description":null,"light_rail":"yes","platforms":null,"wikimedia_commons":null,"wheelchair":null,"name:ja":null,"name:zh-Hant":null,"name:zh-Hans":null,"name:zh":null,"subway":null,"station":"light_rail","wikipedia:en":null,"name:id":null,"name:en":null,"addr:full":null,"wikipedia":"id:Stasiun LRT Rasuna Said","wikidata":"Q25580740","train":null,"railway:ref":null,"public_transport":"station","operator:wikidata":null,"operator:website":null,"operator":"PT Kereta Api Indonesia (Persero), Divisi LRT Jabodebek","old_name":null,"network:wikidata":"Q20427104","network":"LRT Jabodebek","name:th":null,"name":"Rasuna Said","ele":null,"alt_name":null,"addr:street":null,"addr:postcode":null,"addr:country":null,"addr:city":"Jakarta"},"geometry":{"type":"Point","coordinates":[106.8322373,-6.2216089]}},
{"type":"Feature","properties":{"full_id":"n6720467137","osm_id":"6720467137","osm_type":"node","railway":"station","ref":null,"website":null,"amenity":null,"network:short":null,"name:es":null,"line_served":null,"abbr_name":null,"addr:subdistrict":null,"addr:province":null,"addr:district":null,"alt_name:zh":null,"access:roof":null,"start_date":null,"internet_access":null,"description":null,"light_rail":"yes","platforms":null,"wikimedia_commons":null,"wheelchair":null,"name:ja":null,"name:zh-Hant":null,"name:zh-Hans":null,"name:zh":null,"subway":null,"station":"light_rail","wikipedia:en":null,"name:id":null,"name:en":null,"addr:full":null,"wikipedia":"id:Stasiun LRT Kampung Rambutan","wikidata":"Q19752040","train":null,"railway:ref":null,"public_transport":"station","operator:wikidata":null,"operator:website":null,"operator":"PT Kereta Api Indonesia (Persero), Divisi LRT Jabodebek","old_name":null,"network:wikidata":null,"network":"LRT Jabodebek","name:th":null,"name":"Kampung Rambutan","ele":null,"alt_name":null,"addr:street":null,"addr:postcode":null,"addr:country":null,"addr:city":"Jakarta"},"geometry":{"type":"Point","coordinates":[106.8843804,-6.3095494]}},
{"type":"Feature","properties":{"full_id":"n7764926504","osm_id":"7764926504","osm_type":"node","railway":"station","ref":null,"website":null,"amenity":null,"network:short":null,"name:es":null,"line_served":null,"abbr_name":null,"addr:subdistrict":null,"addr:province":null,"addr:district":null,"alt_name:zh":null,"access:roof":null,"start_date":null,"internet_access":null,"description":null,"light_rail":null,"platforms":null,"wikimedia_commons":null,"wheelchair":null,"name:ja":null,"name:zh-Hant":null,"name:zh-Hans":null,"name:zh":null,"subway":null,"station":null,"wikipedia:en":null,"name:id":null,"name:en":null,"addr:full":null,"wikipedia":"id:Stasiun Matraman","wikidata":"Q65341446","train":"yes","railway:ref":"MTR","public_transport":"station","operator:wikidata":"Q2745027","operator:website":"https://www.kai.id","operator":"PT Kereta Api Indonesia","old_name":null,"network:wikidata":"Q12501611","network":"KAI Commuter","name:th":null,"name":"Matraman","ele":null,"alt_name":"Stasiun Matraman","addr:street":null,"addr:postcode":null,"addr:country":null,"addr:city":null},"geometry":{"type":"Point","coordinates":[106.8597528,-6.2125672]}},
{"type":"Feature","properties":{"full_id":"n8174072567","osm_id":"8174072567","osm_type":"node","railway":"station","ref":null,"website":null,"amenity":null,"network:short":null,"name:es":null,"line_served":null,"abbr_name":null,"addr:subdistrict":null,"addr:province":null,"addr:district":null,"alt_name:zh":null,"access:roof":null,"start_date":null,"internet_access":null,"description":null,"light_rail":"yes","platforms":null,"wikimedia_commons":null,"wheelchair":null,"name:ja":null,"name:zh-Hant":null,"name:zh-Hans":null,"name:zh":null,"subway":null,"station":"light_rail","wikipedia:en":null,"name:id":null,"name:en":null,"addr:full":null,"wikipedia":"id:Stasiun LRT Kuningan","wikidata":"Q10166373","train":null,"railway:ref":null,"public_transport":"station","operator:wikidata":null,"operator:website":null,"operator":"PT Kereta Api Indonesia (Persero), Divisi LRT Jabodebek","old_name":null,"network:wikidata":"Q20427104","network":"LRT Jabodebek","name:th":null,"name":"Kuningan","ele":null,"alt_name":null,"addr:street":null,"addr:postcode":null,"addr:country":null,"addr:city":"Jakarta"},"geometry":{"type":"Point","coordinates":[106.8332031,-6.2287727]}},
{"type":"Feature","properties":{"full_id":"n8174072568","osm_id":"8174072568","osm_type":"node","railway":"station","ref":null,"website":null,"amenity":null,"network:short":null,"name:es":null,"line_served":null,"abbr_name":null,"addr:subdistrict":null,"addr:province":null,"addr:district":null,"alt_name:zh":null,"access:roof":null,"start_date":null,"internet_access":null,"description":null,"light_rail":"yes","platforms":null,"wikimedia_commons":null,"wheelchair":null,"name:ja":null,"name:zh-Hant":null,"name:zh-Hans":null,"name:zh":null,"subway":null,"station":"light_rail","wikipedia:en":null,"name:id":null,"name:en":null,"addr:full":null,"wikipedia":"id:Stasiun LRT Ciracas","wikidata":"Q19726743","train":null,"railway:ref":null,"public_transport":"station","operator:wikidata":null,"operator:website":null,"operator":"PT Kereta Api Indonesia (Persero), Divisi LRT Jabodebek","old_name":null,"network:wikidata":null,"network":"LRT Jabodebek","name:th":null,"name":"Ciracas","ele":null,"alt_name":null,"addr:street":null,"addr:postcode":"13650","addr:country":null,"addr:city":"Jakarta"},"geometry":{"type":"Point","coordinates":[106.8866433,-6.3237693]}},
{"type":"Feature","properties":{"full_id":"n8174072570","osm_id":"8174072570","osm_type":"node","railway":"station","ref":null,"website":null,"amenity":null,"network:short":null,"name:es":null,"line_served":null,"abbr_name":null,"addr:subdistrict":null,"addr:province":null,"addr:district":null,"alt_name:zh":null,"access:roof":null,"start_date":null,"internet_access":null,"description":null,"light_rail":"yes","platforms":null,"wikimedia_commons":null,"wheelchair":null,"name:ja":null,"name:zh-Hant":null,"name:zh-Hans":null,"name:zh":null,"subway":null,"station":"light_rail","wikipedia:en":null,"name:id":null,"name:en":null,"addr:full":null,"wikipedia":"id:Stasiun LRT Dukuh Atas BNI","wikidata":"Q19740981","train":null,"railway:ref":null,"public_transport":"station","operator:wikidata":null,"operator:website":null,"operator":"PT Kereta Api Indonesia (Persero), Divisi LRT Jabodebek","old_name":"Dukuh Atas","network:wikidata":"Q20427104","network":"LRT Jabodebek","name:th":"ดูกุฮ์อาตัซ","name":"Dukuh Atas Bank Syariah Indonesia","ele":null,"alt_name":null,"addr:street":null,"addr:postcode":null,"addr:country":null,"addr:city":"Jakarta"},"geometry":{"type":"Point","coordinates":[106.8255301,-6.204828]}},
{"type":"Feature","properties":{"full_id":"n8487603262","osm_id":"8487603262","osm_type":"node","railway":"station","ref":null,"website":null,"amenity":null,"network:short":null,"name:es":null,"line_served":null,"abbr_name":null,"addr:subdistrict":null,"addr:province":null,"addr:district":null,"alt_name:zh":null,"access:roof":null,"start_date":null,"internet_access":null,"description":null,"light_rail":"yes","platforms":null,"wikimedia_commons":null,"wheelchair":null,"name:ja":null,"name:zh-Hant":null,"name:zh-Hans":null,"name:zh":null,"subway":null,"station":"light_rail","wikipedia:en":null,"name:id":null,"name:en":null,"addr:full":null,"wikipedia":"id:Stasiun LRT Ciliwung","wikidata":"Q10166356","train":null,"railway:ref":null,"public_transport":"station","operator:wikidata":null,"operator:website":null,"operator":"PT Kereta Api Indonesia (Persero), Divisi LRT Jabodebek","old_name":null,"network:wikidata":"Q20427104","network":"LRT Jabodebek","name:th":null,"name":"Ciliwung","ele":null,"alt_name":null,"addr:street":null,"addr:postcode":null,"addr:country":null,"addr:city":"Jakarta"},"geometry":{"type":"Point","coordinates":[106.8639705,-6.2434461]}},
{"type":"Feature","properties":{"full_id":"n9761865798","osm_id":"9761865798","osm_type":"node","railway":"station","ref":null,"website":null,"amenity":null,"network:short":null,"name:es":null,"line_served":null,"abbr_name":null,"addr:subdistrict":null,"addr:province":null,"addr:district":null,"alt_name:zh":null,"access:roof":null,"start_date":null,"internet_access":null,"description":null,"light_rail":"yes","platforms":null,"wikimedia_commons":null,"wheelchair":null,"name:ja":null,"name:zh-Hant":null,"name:zh-Hans":null,"name:zh":null,"subway":null,"station":"light_rail","wikipedia:en":null,"name:id":null,"name:en":null,"addr:full":null,"wikipedia":"id:Stasiun Halim","wikidata":"Q111590566","train":null,"railway:ref":"HAL","public_transport":"station","operator:wikidata":null,"operator:website":null,"operator":"PT Kereta Api Indonesia (Persero), Divisi LRT Jabodebek","old_name":null,"network:wikidata":null,"network":"LRT Jabodebek","name:th":null,"name":"Halim","ele":null,"alt_name":null,"addr:street":null,"addr:postcode":null,"addr:country":null,"addr:city":"Jakarta"},"geometry":{"type":"Point","coordinates":[106.8872875,-6.2458656]}},
{"type":"Feature","properties":{"full_id":"n11201927617","osm_id":"11201927617","osm_type":"node","railway":"station","ref":"BOI","website":null,"amenity":null,"network:short":null,"name:es":null,"line_served":null,"abbr_name":null,"addr:subdistrict":null,"addr:province":null,"addr:district":null,"alt_name:zh":null,"access:roof":null,"start_date":null,"internet_access":null,"description":null,"light_rail":null,"platforms":null,"wikimedia_commons":null,"wheelchair":null,"name:ja":null,"name:zh-Hant":null,"name:zh-Hans":null,"name:zh":null,"subway":null,"station":null,"wikipedia:en":null,"name:id":null,"name:en":null,"addr:full":null,"wikipedia":"id:Stasiun Bojong Indah","wikidata":"Q19740874","train":"yes","railway:ref":null,"public_transport":"station","operator:wikidata":null,"operator:website":null,"operator":"PT Kereta Api Indonesia","old_name":null,"network:wikidata":"Q12501611","network":"KAI Commuter","name:th":"โบจงอินดะฮ์","name":"Bojong Indah","ele":null,"alt_name":"Stasiun Bojong Indah","addr:street":null,"addr:postcode":null,"addr:country":null,"addr:city":"DKI Jakarta"},"geometry":{"type":"Point","coordinates":[106.7361338,-6.1602142]}},
{"type":"Feature","properties":{"full_id":"n12260707174","osm_id":"12260707174","osm_type":"node","railway":"station","ref":null,"website":null,"amenity":null,"network:short":null,"name:es":null,"line_served":null,"abbr_name":null,"addr:subdistrict":null,"addr:province":null,"addr:district":null,"alt_name:zh":null,"access:roof":null,"start_date":null,"internet_access":null,"description":null,"light_rail":"yes","platforms":null,"wikimedia_commons":null,"wheelchair":null,"name:ja":null,"name:zh-Hant":null,"name:zh-Hans":null,"name:zh":null,"subway":null,"station":"light_rail","wikipedia:en":null,"name:id":null,"name:en":null,"addr:full":null,"wikipedia":"id:Stasiun LRT Cawang","wikidata":"Q19726745","train":null,"railway:ref":null,"public_transport":"station","operator:wikidata":null,"operator:website":null,"operator":"PT Kereta Api Indonesia (Persero), Divisi LRT Jabodebek","old_name":null,"network:wikidata":"Q20427104","network":"LRT Jabodebek","name:th":null,"name":"Cawang","ele":null,"alt_name":null,"addr:street":null,"addr:postcode":null,"addr:country":null,"addr:city":"Jakarta"},"geometry":{"type":"Point","coordinates":[106.8712296,-6.245907]}}
]
}
